<?xml version="1.0"?>
<gpx version="1.1" creator="gpxgenerator.com">
<wpt lat="36.07571497382793" lon="140.2144759290558">
    <ele>1.00</ele>
    <time>2025-01-05T15:57:36Z</time>
</wpt>
<wpt lat="36.07572820920769" lon="140.21443357838714">
    <ele>1.00</ele>
    <time>2025-01-05T15:57:37Z</time>
</wpt>
<wpt lat="36.07574144458744" lon="140.21439122771849">
    <ele>1.00</ele>
    <time>2025-01-05T15:57:38Z</time>
</wpt>
<wpt lat="36.07575467996720" lon="140.21434887704982">
    <ele>1.00</ele>
    <time>2025-01-05T15:57:39Z</time>
</wpt>
<wpt lat="36.07576791534697" lon="140.21430652638116">
    <ele>1.00</ele>
    <time>2025-01-05T15:57:40Z</time>
</wpt>
<wpt lat="36.07578115072673" lon="140.21426417571251">
    <ele>1.00</ele>
    <time>2025-01-05T15:57:41Z</time>
</wpt>
<wpt lat="36.07579438610648" lon="140.21422182504386">
    <ele>1.00</ele>
    <time>2025-01-05T15:57:42Z</time>
</wpt>
<wpt lat="36.07580762148624" lon="140.21417947437521">
    <ele>1.00</ele>
    <time>2025-01-05T15:57:43Z</time>
</wpt>
<wpt lat="36.07582085686600" lon="140.21413712370654">
    <ele>1.00</ele>
    <time>2025-01-05T15:57:44Z</time>
</wpt>
<wpt lat="36.07583409224576" lon="140.21409477303789">
    <ele>1.00</ele>
    <time>2025-01-05T15:57:45Z</time>
</wpt>
<wpt lat="36.07584732762552" lon="140.21405242236924">
    <ele>1.00</ele>
    <time>2025-01-05T15:57:46Z</time>
</wpt>
<wpt lat="36.07586056300528" lon="140.21401007170059">
    <ele>1.00</ele>
    <time>2025-01-05T15:57:47Z</time>
</wpt>
<wpt lat="36.07587379838504" lon="140.21396772103191">
    <ele>1.00</ele>
    <time>2025-01-05T15:57:48Z</time>
</wpt>
<wpt lat="36.07588703376480" lon="140.21392537036326">
    <ele>1.00</ele>
    <time>2025-01-05T15:57:49Z</time>
</wpt>
<wpt lat="36.07590026914455" lon="140.21388301969461">
    <ele>1.00</ele>
    <time>2025-01-05T15:57:50Z</time>
</wpt>
<wpt lat="36.07591350452432" lon="140.21384066902596">
    <ele>1.00</ele>
    <time>2025-01-05T15:57:51Z</time>
</wpt>
<wpt lat="36.07592673990408" lon="140.21379831835731">
    <ele>1.00</ele>
    <time>2025-01-05T15:57:52Z</time>
</wpt>
<wpt lat="36.07593997528384" lon="140.21375596768863">
    <ele>1.00</ele>
    <time>2025-01-05T15:57:53Z</time>
</wpt>
<wpt lat="36.07595321066359" lon="140.21371361701998">
    <ele>1.00</ele>
    <time>2025-01-05T15:57:54Z</time>
</wpt>
<wpt lat="36.07596644604335" lon="140.21367126635133">
    <ele>1.00</ele>
    <time>2025-01-05T15:57:55Z</time>
</wpt>
<wpt lat="36.07597511748136" lon="140.21362700990258">
    <ele>1.01</ele>
    <time>2025-01-05T15:57:56Z</time>
</wpt>
<wpt lat="36.07598378891937" lon="140.21358275345384">
    <ele>1.02</ele>
    <time>2025-01-05T15:57:57Z</time>
</wpt>
<wpt lat="36.07599246035739" lon="140.21353849700509">
    <ele>1.02</ele>
    <time>2025-01-05T15:57:58Z</time>
</wpt>
<wpt lat="36.07600113179540" lon="140.21349424055634">
    <ele>1.03</ele>
    <time>2025-01-05T15:57:59Z</time>
</wpt>
<wpt lat="36.07600980323341" lon="140.21344998410760">
    <ele>1.04</ele>
    <time>2025-01-05T15:58:00Z</time>
</wpt>
<wpt lat="36.07601847467143" lon="140.21340572765885">
    <ele>1.04</ele>
    <time>2025-01-05T15:58:01Z</time>
</wpt>
<wpt lat="36.07602714610944" lon="140.21336147121011">
    <ele>1.05</ele>
    <time>2025-01-05T15:58:02Z</time>
</wpt>
<wpt lat="36.07603581754745" lon="140.21331721476136">
    <ele>1.06</ele>
    <time>2025-01-05T15:58:03Z</time>
</wpt>
<wpt lat="36.07603333999455" lon="140.21326970134453">
    <ele>1.05</ele>
    <time>2025-01-05T15:58:04Z</time>
</wpt>
<wpt lat="36.07603086244166" lon="140.21322218792770">
    <ele>1.04</ele>
    <time>2025-01-05T15:58:05Z</time>
</wpt>
<wpt lat="36.07602838488876" lon="140.21317467451087">
    <ele>1.03</ele>
    <time>2025-01-05T15:58:06Z</time>
</wpt>
<wpt lat="36.07602590733587" lon="140.21312716109401">
    <ele>1.03</ele>
    <time>2025-01-05T15:58:07Z</time>
</wpt>
<wpt lat="36.07602342978297" lon="140.21307964767718">
    <ele>1.02</ele>
    <time>2025-01-05T15:58:08Z</time>
</wpt>
<wpt lat="36.07602095223007" lon="140.21303213426035">
    <ele>1.01</ele>
    <time>2025-01-05T15:58:09Z</time>
</wpt>
<wpt lat="36.07601847467718" lon="140.2129846208435">
    <ele>1.00</ele>
    <time>2025-01-05T15:58:10Z</time>
</wpt>
<wpt lat="36.07600484812647" lon="140.21294170549928">
    <ele>1.00</ele>
    <time>2025-01-05T15:58:11Z</time>
</wpt>
<wpt lat="36.07599122157575" lon="140.21289879015504">
    <ele>1.00</ele>
    <time>2025-01-05T15:58:12Z</time>
</wpt>
<wpt lat="36.07597759502504" lon="140.21285587481080">
    <ele>1.00</ele>
    <time>2025-01-05T15:58:13Z</time>
</wpt>
<wpt lat="36.07596396847433" lon="140.21281295946656">
    <ele>1.00</ele>
    <time>2025-01-05T15:58:14Z</time>
</wpt>
<wpt lat="36.07595034192362" lon="140.21277004412232">
    <ele>1.00</ele>
    <time>2025-01-05T15:58:15Z</time>
</wpt>
<wpt lat="36.07593671537290" lon="140.21272712877808">
    <ele>1.00</ele>
    <time>2025-01-05T15:58:16Z</time>
</wpt>
<wpt lat="36.07592308882219" lon="140.21268421343385">
    <ele>1.00</ele>
    <time>2025-01-05T15:58:17Z</time>
</wpt>
<wpt lat="36.07590202957495" lon="140.21264589616220">
    <ele>1.00</ele>
    <time>2025-01-05T15:58:18Z</time>
</wpt>
<wpt lat="36.07588097032770" lon="140.21260757889056">
    <ele>1.00</ele>
    <time>2025-01-05T15:58:19Z</time>
</wpt>
<wpt lat="36.07585991108046" lon="140.21256926161891">
    <ele>1.00</ele>
    <time>2025-01-05T15:58:20Z</time>
</wpt>
<wpt lat="36.07583885183323" lon="140.21253094434729">
    <ele>1.00</ele>
    <time>2025-01-05T15:58:21Z</time>
</wpt>
<wpt lat="36.07581779258599" lon="140.21249262707565">
    <ele>1.00</ele>
    <time>2025-01-05T15:58:22Z</time>
</wpt>
<wpt lat="36.07579673333874" lon="140.21245430980400">
    <ele>1.00</ele>
    <time>2025-01-05T15:58:23Z</time>
</wpt>
<wpt lat="36.0757756740915" lon="140.21241599253236">
    <ele>1.00</ele>
    <time>2025-01-05T15:58:24Z</time>
</wpt>
<wpt lat="36.07575337602198" lon="140.21238227333330">
    <ele>1.00</ele>
    <time>2025-01-05T15:58:25Z</time>
</wpt>
<wpt lat="36.07573107795245" lon="140.21234855413428">
    <ele>1.00</ele>
    <time>2025-01-05T15:58:26Z</time>
</wpt>
<wpt lat="36.07570877988293" lon="140.21231483493523">
    <ele>1.00</ele>
    <time>2025-01-05T15:58:27Z</time>
</wpt>
<wpt lat="36.07568648181341" lon="140.21228111573618">
    <ele>1.00</ele>
    <time>2025-01-05T15:58:28Z</time>
</wpt>
<wpt lat="36.07566418374388" lon="140.21224739653712">
    <ele>1.00</ele>
    <time>2025-01-05T15:58:29Z</time>
</wpt>
<wpt lat="36.07564188567436" lon="140.21221367733810">
    <ele>1.00</ele>
    <time>2025-01-05T15:58:30Z</time>
</wpt>
<wpt lat="36.075619587604834" lon="140.21217995813905">
    <ele>1.00</ele>
    <time>2025-01-05T15:58:31Z</time>
</wpt>
<wpt lat="36.07559899281806" lon="140.21214106610833">
    <ele>1.00</ele>
    <time>2025-01-05T15:58:32Z</time>
</wpt>
<wpt lat="36.07557839803128" lon="140.21210217407761">
    <ele>1.00</ele>
    <time>2025-01-05T15:58:33Z</time>
</wpt>
<wpt lat="36.07555780324450" lon="140.21206328204690">
    <ele>1.00</ele>
    <time>2025-01-05T15:58:34Z</time>
</wpt>
<wpt lat="36.07553720845772" lon="140.21202439001618">
    <ele>1.00</ele>
    <time>2025-01-05T15:58:35Z</time>
</wpt>
<wpt lat="36.07551661367094" lon="140.21198549798547">
    <ele>1.00</ele>
    <time>2025-01-05T15:58:36Z</time>
</wpt>
<wpt lat="36.07549601888417" lon="140.21194660595475">
    <ele>1.00</ele>
    <time>2025-01-05T15:58:37Z</time>
</wpt>
<wpt lat="36.07547542409738" lon="140.21190771392403">
    <ele>1.00</ele>
    <time>2025-01-05T15:58:38Z</time>
</wpt>
<wpt lat="36.07545482931061" lon="140.21186882189332">
    <ele>1.00</ele>
    <time>2025-01-05T15:58:39Z</time>
</wpt>
<wpt lat="36.07545157749823" lon="140.21182322434007">
    <ele>1.00</ele>
    <time>2025-01-05T15:58:40Z</time>
</wpt>
<wpt lat="36.07544832568584" lon="140.21177762678681">
    <ele>1.00</ele>
    <time>2025-01-05T15:58:41Z</time>
</wpt>
<wpt lat="36.07544507387346" lon="140.21173202923356">
    <ele>1.00</ele>
    <time>2025-01-05T15:58:42Z</time>
</wpt>
<wpt lat="36.07544182206108" lon="140.21168643168031">
    <ele>1.00</ele>
    <time>2025-01-05T15:58:43Z</time>
</wpt>
<wpt lat="36.07543857024870" lon="140.21164083412705">
    <ele>1.00</ele>
    <time>2025-01-05T15:58:44Z</time>
</wpt>
<wpt lat="36.07543531843632" lon="140.21159523657380">
    <ele>1.00</ele>
    <time>2025-01-05T15:58:45Z</time>
</wpt>
<wpt lat="36.07543206662393" lon="140.21154963902055">
    <ele>1.00</ele>
    <time>2025-01-05T15:58:46Z</time>
</wpt>
<wpt lat="36.07542881481155" lon="140.2115040414673">
    <ele>1.00</ele>
    <time>2025-01-05T15:58:47Z</time>
</wpt>
<wpt lat="36.07544095490844" lon="140.21145683458863">
    <ele>1.00</ele>
    <time>2025-01-05T15:58:48Z</time>
</wpt>
<wpt lat="36.07545309500532" lon="140.21140962770997">
    <ele>1.00</ele>
    <time>2025-01-05T15:58:49Z</time>
</wpt>
<wpt lat="36.07546523510221" lon="140.21136242083131">
    <ele>1.00</ele>
    <time>2025-01-05T15:58:50Z</time>
</wpt>
<wpt lat="36.07547737519910" lon="140.21131521395264">
    <ele>1.00</ele>
    <time>2025-01-05T15:58:51Z</time>
</wpt>
<wpt lat="36.075489515295985" lon="140.21126800707398">
    <ele>1.00</ele>
    <time>2025-01-05T15:58:52Z</time>
</wpt>
<wpt lat="36.07550396777873" lon="140.21122151545106">
    <ele>1.00</ele>
    <time>2025-01-05T15:58:53Z</time>
</wpt>
<wpt lat="36.07551842026147" lon="140.21117502382813">
    <ele>1.00</ele>
    <time>2025-01-05T15:58:54Z</time>
</wpt>
<wpt lat="36.07553287274422" lon="140.21112853220521">
    <ele>1.00</ele>
    <time>2025-01-05T15:58:55Z</time>
</wpt>
<wpt lat="36.07554732522696" lon="140.21108204058228">
    <ele>1.00</ele>
    <time>2025-01-05T15:58:56Z</time>
</wpt>
<wpt lat="36.07556177770971" lon="140.21103554895936">
    <ele>1.00</ele>
    <time>2025-01-05T15:58:57Z</time>
</wpt>
<wpt lat="36.07557623019245" lon="140.21098905733643">
    <ele>1.00</ele>
    <time>2025-01-05T15:58:58Z</time>
</wpt>
<wpt lat="36.07557623019245" lon="140.21094185045777">
    <ele>1.00</ele>
    <time>2025-01-05T15:58:59Z</time>
</wpt>
<wpt lat="36.07557623019245" lon="140.21089464357911">
    <ele>1.00</ele>
    <time>2025-01-05T15:59:00Z</time>
</wpt>
<wpt lat="36.07557623019245" lon="140.21084743670045">
    <ele>1.00</ele>
    <time>2025-01-05T15:59:01Z</time>
</wpt>
<wpt lat="36.07557623019245" lon="140.21080022982179">
    <ele>1.00</ele>
    <time>2025-01-05T15:59:02Z</time>
</wpt>
<wpt lat="36.07557623019245" lon="140.21075302294312">
    <ele>1.00</ele>
    <time>2025-01-05T15:59:03Z</time>
</wpt>
<wpt lat="36.07556755870472" lon="140.21071010759889">
    <ele>1.00</ele>
    <time>2025-01-05T15:59:04Z</time>
</wpt>
<wpt lat="36.07555888721699" lon="140.21066719225465">
    <ele>1.00</ele>
    <time>2025-01-05T15:59:05Z</time>
</wpt>
<wpt lat="36.07555021572925" lon="140.21062427691041">
    <ele>1.00</ele>
    <time>2025-01-05T15:59:06Z</time>
</wpt>
<wpt lat="36.07554154424151" lon="140.21058136156617">
    <ele>1.00</ele>
    <time>2025-01-05T15:59:07Z</time>
</wpt>
<wpt lat="36.07553287275378" lon="140.21053844622193">
    <ele>1.00</ele>
    <time>2025-01-05T15:59:08Z</time>
</wpt>
<wpt lat="36.07552420126604" lon="140.2104955308777">
    <ele>1.00</ele>
    <time>2025-01-05T15:59:09Z</time>
</wpt>
<wpt lat="36.07550035465242" lon="140.21045529774247">
    <ele>1.00</ele>
    <time>2025-01-05T15:59:10Z</time>
</wpt>
<wpt lat="36.07547650803880" lon="140.21041506460725">
    <ele>1.00</ele>
    <time>2025-01-05T15:59:11Z</time>
</wpt>
<wpt lat="36.07545266142517" lon="140.21037483147202">
    <ele>1.00</ele>
    <time>2025-01-05T15:59:12Z</time>
</wpt>
<wpt lat="36.07542881481155" lon="140.2103345983368">
    <ele>1.00</ele>
    <time>2025-01-05T15:59:13Z</time>
</wpt>
<wpt lat="36.07540713603485" lon="140.21029436520158">
    <ele>1.00</ele>
    <time>2025-01-05T15:59:14Z</time>
</wpt>
<wpt lat="36.07538545725814" lon="140.21025413206635">
    <ele>1.00</ele>
    <time>2025-01-05T15:59:15Z</time>
</wpt>
<wpt lat="36.07536377848143" lon="140.21021389893113">
    <ele>1.00</ele>
    <time>2025-01-05T15:59:16Z</time>
</wpt>
<wpt lat="36.07534209970473" lon="140.21017366579591">
    <ele>1.00</ele>
    <time>2025-01-05T15:59:17Z</time>
</wpt>
<wpt lat="36.07532042092802" lon="140.21013343266068">
    <ele>1.00</ele>
    <time>2025-01-05T15:59:18Z</time>
</wpt>
<wpt lat="36.07529874215132" lon="140.21009319952546">
    <ele>1.00</ele>
    <time>2025-01-05T15:59:19Z</time>
</wpt>
<wpt lat="36.07527706337461" lon="140.21005296639024">
    <ele>1.00</ele>
    <time>2025-01-05T15:59:20Z</time>
</wpt>
<wpt lat="36.0752553845979" lon="140.210012733255">
    <ele>1.00</ele>
    <time>2025-01-05T15:59:21Z</time>
</wpt>
<wpt lat="36.07523990709737" lon="140.20997278364720">
    <ele>1.00</ele>
    <time>2025-01-05T15:59:22Z</time>
</wpt>
<wpt lat="36.07522442959684" lon="140.20993283403942">
    <ele>1.00</ele>
    <time>2025-01-05T15:59:23Z</time>
</wpt>
<wpt lat="36.07520895209630" lon="140.20989288443161">
    <ele>1.00</ele>
    <time>2025-01-05T15:59:24Z</time>
</wpt>
<wpt lat="36.07519347459577" lon="140.20985293482380">
    <ele>1.00</ele>
    <time>2025-01-05T15:59:25Z</time>
</wpt>
<wpt lat="36.07517799709524" lon="140.20981298521602">
    <ele>1.00</ele>
    <time>2025-01-05T15:59:26Z</time>
</wpt>
<wpt lat="36.07516251959471" lon="140.20977303560821">
    <ele>1.00</ele>
    <time>2025-01-05T15:59:27Z</time>
</wpt>
<wpt lat="36.07514704209417" lon="140.20973308600040">
    <ele>1.00</ele>
    <time>2025-01-05T15:59:28Z</time>
</wpt>
<wpt lat="36.07513156459364" lon="140.20969313639259">
    <ele>1.00</ele>
    <time>2025-01-05T15:59:29Z</time>
</wpt>
<wpt lat="36.07511608709311" lon="140.20965318678481">
    <ele>1.00</ele>
    <time>2025-01-05T15:59:30Z</time>
</wpt>
<wpt lat="36.07510060959257" lon="140.20961323717700">
    <ele>1.00</ele>
    <time>2025-01-05T15:59:31Z</time>
</wpt>
<wpt lat="36.07508513209204" lon="140.20957328756919">
    <ele>1.00</ele>
    <time>2025-01-05T15:59:32Z</time>
</wpt>
<wpt lat="36.07506965459151" lon="140.20953333796140">
    <ele>1.00</ele>
    <time>2025-01-05T15:59:33Z</time>
</wpt>
<wpt lat="36.075054177090976" lon="140.2094933883536">
    <ele>1.00</ele>
    <time>2025-01-05T15:59:34Z</time>
</wpt>
<wpt lat="36.07502196845864" lon="140.20947499606319">
    <ele>1.00</ele>
    <time>2025-01-05T15:59:35Z</time>
</wpt>
<wpt lat="36.07498975982630" lon="140.20945660377282">
    <ele>1.00</ele>
    <time>2025-01-05T15:59:36Z</time>
</wpt>
<wpt lat="36.07495755119397" lon="140.20943821148242">
    <ele>1.00</ele>
    <time>2025-01-05T15:59:37Z</time>
</wpt>
<wpt lat="36.07492534256163" lon="140.20941981919205">
    <ele>1.00</ele>
    <time>2025-01-05T15:59:38Z</time>
</wpt>
<wpt lat="36.07489313392929" lon="140.20940142690165">
    <ele>1.00</ele>
    <time>2025-01-05T15:59:39Z</time>
</wpt>
<wpt lat="36.07486092529695" lon="140.20938303461128">
    <ele>1.00</ele>
    <time>2025-01-05T15:59:40Z</time>
</wpt>
<wpt lat="36.07482871666462" lon="140.20936464232088">
    <ele>1.00</ele>
    <time>2025-01-05T15:59:41Z</time>
</wpt>
<wpt lat="36.07479229603984" lon="140.20933889311434">
    <ele>1.00</ele>
    <time>2025-01-05T15:59:42Z</time>
</wpt>
<wpt lat="36.07475587541505" lon="140.20931314390779">
    <ele>1.00</ele>
    <time>2025-01-05T15:59:43Z</time>
</wpt>
<wpt lat="36.07471945479027" lon="140.20928739470125">
    <ele>1.00</ele>
    <time>2025-01-05T15:59:44Z</time>
</wpt>
<wpt lat="36.07468303416548" lon="140.20926164549471">
    <ele>1.00</ele>
    <time>2025-01-05T15:59:45Z</time>
</wpt>
<wpt lat="36.0746466135407" lon="140.20923589628816">
    <ele>1.00</ele>
    <time>2025-01-05T15:59:46Z</time>
</wpt>
<wpt lat="36.07463216089110" lon="140.20918225210787">
    <ele>1.00</ele>
    <time>2025-01-05T15:59:47Z</time>
</wpt>
<wpt lat="36.07461770824150" lon="140.20912860792757">
    <ele>1.00</ele>
    <time>2025-01-05T15:59:48Z</time>
</wpt>
<wpt lat="36.074603255591896" lon="140.20907496374727">
    <ele>1.00</ele>
    <time>2025-01-05T15:59:49Z</time>
</wpt>
<wpt lat="36.07459458399688" lon="140.20902668398500">
    <ele>1.00</ele>
    <time>2025-01-05T15:59:50Z</time>
</wpt>
<wpt lat="36.07458591240187" lon="140.20897840422273">
    <ele>1.00</ele>
    <time>2025-01-05T15:59:51Z</time>
</wpt>
<wpt lat="36.07457724080685" lon="140.20893012446047">
    <ele>1.00</ele>
    <time>2025-01-05T15:59:52Z</time>
</wpt>
<wpt lat="36.07456856921183" lon="140.20888184469820">
    <ele>1.00</ele>
    <time>2025-01-05T15:59:53Z</time>
</wpt>
<wpt lat="36.07455989761682" lon="140.20883356493593">
    <ele>1.00</ele>
    <time>2025-01-05T15:59:54Z</time>
</wpt>
<wpt lat="36.074551226021796" lon="140.20878528517366">
    <ele>1.00</ele>
    <time>2025-01-05T15:59:55Z</time>
</wpt>
<wpt lat="36.07456856920992" lon="140.20874236982942">
    <ele>1.00</ele>
    <time>2025-01-05T15:59:56Z</time>
</wpt>
<wpt lat="36.07458591239804" lon="140.20869945448518">
    <ele>1.00</ele>
    <time>2025-01-05T15:59:57Z</time>
</wpt>
<wpt lat="36.07460325558615" lon="140.20865653914095">
    <ele>1.00</ele>
    <time>2025-01-05T15:59:58Z</time>
</wpt>
<wpt lat="36.07462059877427" lon="140.2086136237967">
    <ele>1.00</ele>
    <time>2025-01-05T15:59:59Z</time>
</wpt>
<wpt lat="36.07462059877427" lon="140.20855997961641">
    <ele>1.00</ele>
    <time>2025-01-05T16:00:00Z</time>
</wpt>
<wpt lat="36.07462059877427" lon="140.20850633543611">
    <ele>1.00</ele>
    <time>2025-01-05T16:00:01Z</time>
</wpt>
<wpt lat="36.07462059877427" lon="140.20845269125581">
    <ele>1.00</ele>
    <time>2025-01-05T16:00:02Z</time>
</wpt>
<wpt lat="36.07462059877427" lon="140.20839904707552">
    <ele>1.00</ele>
    <time>2025-01-05T16:00:03Z</time>
</wpt>
<wpt lat="36.07461770824387" lon="140.20835076731325">
    <ele>1.00</ele>
    <time>2025-01-05T16:00:04Z</time>
</wpt>
<wpt lat="36.07461481771347" lon="140.20830248755098">
    <ele>1.00</ele>
    <time>2025-01-05T16:00:05Z</time>
</wpt>
<wpt lat="36.07461192718308" lon="140.20825420778871">
    <ele>1.00</ele>
    <time>2025-01-05T16:00:06Z</time>
</wpt>
<wpt lat="36.07460903665269" lon="140.20820592802644">
    <ele>1.00</ele>
    <time>2025-01-05T16:00:07Z</time>
</wpt>
<wpt lat="36.07460614612229" lon="140.20815764826418">
    <ele>1.00</ele>
    <time>2025-01-05T16:00:08Z</time>
</wpt>
<wpt lat="36.074603255591896" lon="140.2081093685019">
    <ele>1.00</ele>
    <time>2025-01-05T16:00:09Z</time>
</wpt>
<wpt lat="36.07461048191669" lon="140.20806466501833">
    <ele>1.00</ele>
    <time>2025-01-05T16:00:10Z</time>
</wpt>
<wpt lat="36.07461770824150" lon="140.20801996153475">
    <ele>1.00</ele>
    <time>2025-01-05T16:00:11Z</time>
</wpt>
<wpt lat="36.07462493456630" lon="140.20797525805116">
    <ele>1.00</ele>
    <time>2025-01-05T16:00:12Z</time>
</wpt>
<wpt lat="36.07463216089110" lon="140.20793055456758">
    <ele>1.00</ele>
    <time>2025-01-05T16:00:13Z</time>
</wpt>
<wpt lat="36.07463938721590" lon="140.20788585108400">
    <ele>1.00</ele>
    <time>2025-01-05T16:00:14Z</time>
</wpt>
<wpt lat="36.0746466135407" lon="140.20784114760042">
    <ele>1.00</ele>
    <time>2025-01-05T16:00:15Z</time>
</wpt>
<wpt lat="36.07464626728875" lon="140.20779093816094">
    <ele>1.00</ele>
    <time>2025-01-05T16:00:16Z</time>
</wpt>
<wpt lat="36.07464592103680" lon="140.20774072872143">
    <ele>1.00</ele>
    <time>2025-01-05T16:00:17Z</time>
</wpt>
<wpt lat="36.07464557478485" lon="140.20769051928195">
    <ele>1.00</ele>
    <time>2025-01-05T16:00:18Z</time>
</wpt>
<wpt lat="36.07464522853289" lon="140.20764030984245">
    <ele>1.00</ele>
    <time>2025-01-05T16:00:19Z</time>
</wpt>
<wpt lat="36.07464488228094" lon="140.20759010040297">
    <ele>1.00</ele>
    <time>2025-01-05T16:00:20Z</time>
</wpt>
<wpt lat="36.07462898436077" lon="140.20754897319807">
    <ele>1.00</ele>
    <time>2025-01-05T16:00:21Z</time>
</wpt>
<wpt lat="36.07461308644061" lon="140.20750784599318">
    <ele>1.00</ele>
    <time>2025-01-05T16:00:22Z</time>
</wpt>
<wpt lat="36.07459718852044" lon="140.20746671878828">
    <ele>1.00</ele>
    <time>2025-01-05T16:00:23Z</time>
</wpt>
<wpt lat="36.07458129060026" lon="140.20742559158339">
    <ele>1.00</ele>
    <time>2025-01-05T16:00:24Z</time>
</wpt>
<wpt lat="36.07456539268010" lon="140.20738446437849">
    <ele>1.00</ele>
    <time>2025-01-05T16:00:25Z</time>
</wpt>
<wpt lat="36.07454949475993" lon="140.2073433371736">
    <ele>1.00</ele>
    <time>2025-01-05T16:00:26Z</time>
</wpt>
<wpt lat="36.07452347994418" lon="140.20730471336378">
    <ele>1.00</ele>
    <time>2025-01-05T16:00:27Z</time>
</wpt>
<wpt lat="36.07449746512844" lon="140.20726608955397">
    <ele>1.00</ele>
    <time>2025-01-05T16:00:28Z</time>
</wpt>
<wpt lat="36.07447145031269" lon="140.20722746574415">
    <ele>1.00</ele>
    <time>2025-01-05T16:00:29Z</time>
</wpt>
<wpt lat="36.07444543549694" lon="140.20718884193434">
    <ele>1.00</ele>
    <time>2025-01-05T16:00:30Z</time>
</wpt>
<wpt lat="36.074419420681195" lon="140.20715021812453">
    <ele>1.00</ele>
    <time>2025-01-05T16:00:31Z</time>
</wpt>
<wpt lat="36.07438184366710" lon="140.20712160789503">
    <ele>1.00</ele>
    <time>2025-01-05T16:00:32Z</time>
</wpt>
<wpt lat="36.07434426665302" lon="140.20709299766554">
    <ele>1.00</ele>
    <time>2025-01-05T16:00:33Z</time>
</wpt>
<wpt lat="36.07430668963893" lon="140.20706438743605">
    <ele>1.00</ele>
    <time>2025-01-05T16:00:34Z</time>
</wpt>
<wpt lat="36.07426622202507" lon="140.20704292976393">
    <ele>1.00</ele>
    <time>2025-01-05T16:00:35Z</time>
</wpt>
<wpt lat="36.07422575441120" lon="140.20702147209181">
    <ele>1.00</ele>
    <time>2025-01-05T16:00:36Z</time>
</wpt>
<wpt lat="36.07418528679734" lon="140.2070000144197">
    <ele>1.00</ele>
    <time>2025-01-05T16:00:37Z</time>
</wpt>
<wpt lat="36.07416794351131" lon="140.20695924484266">
    <ele>1.00</ele>
    <time>2025-01-05T16:00:38Z</time>
</wpt>
<wpt lat="36.07415060022527" lon="140.20691847526564">
    <ele>1.00</ele>
    <time>2025-01-05T16:00:39Z</time>
</wpt>
<wpt lat="36.07413325693925" lon="140.20687770568861">
    <ele>1.00</ele>
    <time>2025-01-05T16:00:40Z</time>
</wpt>
<wpt lat="36.07411591365322" lon="140.20683693611159">
    <ele>1.00</ele>
    <time>2025-01-05T16:00:41Z</time>
</wpt>
<wpt lat="36.074098570367184" lon="140.20679616653456">
    <ele>1.00</ele>
    <time>2025-01-05T16:00:42Z</time>
</wpt>
<wpt lat="36.07409857036718" lon="140.20673894607557">
    <ele>1.00</ele>
    <time>2025-01-05T16:00:43Z</time>
</wpt>
<wpt lat="36.07409857036718" lon="140.20668172561659">
    <ele>1.00</ele>
    <time>2025-01-05T16:00:44Z</time>
</wpt>
<wpt lat="36.074098570367184" lon="140.2066245051576">
    <ele>1.00</ele>
    <time>2025-01-05T16:00:45Z</time>
</wpt>
<wpt lat="36.07411157783457" lon="140.20657890760435">
    <ele>1.00</ele>
    <time>2025-01-05T16:00:46Z</time>
</wpt>
<wpt lat="36.07412458530196" lon="140.20653331005110">
    <ele>1.00</ele>
    <time>2025-01-05T16:00:47Z</time>
</wpt>
<wpt lat="36.07413759276935" lon="140.20648771249785">
    <ele>1.00</ele>
    <time>2025-01-05T16:00:48Z</time>
</wpt>
<wpt lat="36.07415060023674" lon="140.2064421149446">
    <ele>1.00</ele>
    <time>2025-01-05T16:00:49Z</time>
</wpt>
<wpt lat="36.07413759276935" lon="140.20639919960036">
    <ele>1.00</ele>
    <time>2025-01-05T16:00:50Z</time>
</wpt>
<wpt lat="36.07412458530196" lon="140.20635628425612">
    <ele>1.00</ele>
    <time>2025-01-05T16:00:51Z</time>
</wpt>
<wpt lat="36.07411157783457" lon="140.20631336891188">
    <ele>1.00</ele>
    <time>2025-01-05T16:00:52Z</time>
</wpt>
<wpt lat="36.074098570367184" lon="140.20627045356764">
    <ele>1.00</ele>
    <time>2025-01-05T16:00:53Z</time>
</wpt>
<wpt lat="36.07405521210428" lon="140.20624363147749">
    <ele>1.00</ele>
    <time>2025-01-05T16:00:54Z</time>
</wpt>
<wpt lat="36.074011853841384" lon="140.20621680938734">
    <ele>1.00</ele>
    <time>2025-01-05T16:00:55Z</time>
</wpt>
<wpt lat="36.07397716718900" lon="140.20622753822340">
    <ele>1.00</ele>
    <time>2025-01-05T16:00:56Z</time>
</wpt>
<wpt lat="36.07394248053662" lon="140.20623826705946">
    <ele>1.00</ele>
    <time>2025-01-05T16:00:57Z</time>
</wpt>
<wpt lat="36.07390779388424" lon="140.20624899589552">
    <ele>1.00</ele>
    <time>2025-01-05T16:00:58Z</time>
</wpt>
<wpt lat="36.07388177886914" lon="140.20630264007582">
    <ele>1.01</ele>
    <time>2025-01-05T16:00:59Z</time>
</wpt>
<wpt lat="36.07385576385405" lon="140.20635628425612">
    <ele>1.02</ele>
    <time>2025-01-05T16:01:00Z</time>
</wpt>
<wpt lat="36.07384926009704" lon="140.20639919960036">
    <ele>1.06</ele>
    <time>2025-01-05T16:01:01Z</time>
</wpt>
<wpt lat="36.07384275634004" lon="140.20644211494459">
    <ele>1.09</ele>
    <time>2025-01-05T16:01:02Z</time>
</wpt>
<wpt lat="36.07383625258303" lon="140.20648503028883">
    <ele>1.13</ele>
    <time>2025-01-05T16:01:03Z</time>
</wpt>
<wpt lat="36.07382974882602" lon="140.20652794563307">
    <ele>1.17</ele>
    <time>2025-01-05T16:01:04Z</time>
</wpt>
<wpt lat="36.07384015483551" lon="140.20657300674452">
    <ele>1.14</ele>
    <time>2025-01-05T16:01:05Z</time>
</wpt>
<wpt lat="36.07385056084499" lon="140.20661806785597">
    <ele>1.11</ele>
    <time>2025-01-05T16:01:06Z</time>
</wpt>
<wpt lat="36.07386096685448" lon="140.20666312896742">
    <ele>1.09</ele>
    <time>2025-01-05T16:01:07Z</time>
</wpt>
<wpt lat="36.07387137286396" lon="140.20670819007887">
    <ele>1.06</ele>
    <time>2025-01-05T16:01:08Z</time>
</wpt>
<wpt lat="36.07388177887344" lon="140.20675325119032">
    <ele>1.03</ele>
    <time>2025-01-05T16:01:09Z</time>
</wpt>
<wpt lat="36.07390562595616" lon="140.20679080211653">
    <ele>1.02</ele>
    <time>2025-01-05T16:01:10Z</time>
</wpt>
<wpt lat="36.07392947303887" lon="140.20682835304274">
    <ele>1.02</ele>
    <time>2025-01-05T16:01:11Z</time>
</wpt>
<wpt lat="36.07395332012158" lon="140.20686590396895">
    <ele>1.01</ele>
    <time>2025-01-05T16:01:12Z</time>
</wpt>
<wpt lat="36.0739771672043" lon="140.20690345489515">
    <ele>1.00</ele>
    <time>2025-01-05T16:01:13Z</time>
</wpt>
<wpt lat="36.07400101425809" lon="140.20693564140333">
    <ele>1.00</ele>
    <time>2025-01-05T16:01:14Z</time>
</wpt>
<wpt lat="36.07402486131190" lon="140.20696782791151">
    <ele>1.00</ele>
    <time>2025-01-05T16:01:15Z</time>
</wpt>
<wpt lat="36.07404870836569" lon="140.20700001441969">
    <ele>1.00</ele>
    <time>2025-01-05T16:01:16Z</time>
</wpt>
<wpt lat="36.07407255541949" lon="140.20703220092787">
    <ele>1.00</ele>
    <time>2025-01-05T16:01:17Z</time>
</wpt>
<wpt lat="36.07407255541949" lon="140.20707869255079">
    <ele>1.00</ele>
    <time>2025-01-05T16:01:18Z</time>
</wpt>
<wpt lat="36.07407255541949" lon="140.20712518417372">
    <ele>1.00</ele>
    <time>2025-01-05T16:01:19Z</time>
</wpt>
<wpt lat="36.07407255541949" lon="140.20717167579664">
    <ele>1.00</ele>
    <time>2025-01-05T16:01:20Z</time>
</wpt>
<wpt lat="36.07406760018944" lon="140.20721765652260">
    <ele>1.00</ele>
    <time>2025-01-05T16:01:21Z</time>
</wpt>
<wpt lat="36.07406264495939" lon="140.20726363724859">
    <ele>1.00</ele>
    <time>2025-01-05T16:01:22Z</time>
</wpt>
<wpt lat="36.07405768972934" lon="140.20730961797454">
    <ele>1.00</ele>
    <time>2025-01-05T16:01:23Z</time>
</wpt>
<wpt lat="36.07405273449930" lon="140.20735559870053">
    <ele>1.00</ele>
    <time>2025-01-05T16:01:24Z</time>
</wpt>
<wpt lat="36.07404777926925" lon="140.20740157942649">
    <ele>1.00</ele>
    <time>2025-01-05T16:01:25Z</time>
</wpt>
<wpt lat="36.07404282403920" lon="140.20744756015247">
    <ele>1.00</ele>
    <time>2025-01-05T16:01:26Z</time>
</wpt>
<wpt lat="36.07403786880915" lon="140.20749354087843">
    <ele>1.00</ele>
    <time>2025-01-05T16:01:27Z</time>
</wpt>
<wpt lat="36.07404307180099" lon="140.20754289352431">
    <ele>1.00</ele>
    <time>2025-01-05T16:01:28Z</time>
</wpt>
<wpt lat="36.07404827479282" lon="140.20759224617018">
    <ele>1.00</ele>
    <time>2025-01-05T16:01:29Z</time>
</wpt>
<wpt lat="36.07405347778465" lon="140.20764159881605">
    <ele>1.01</ele>
    <time>2025-01-05T16:01:30Z</time>
</wpt>
<wpt lat="36.07405868077648" lon="140.20769095146193">
    <ele>1.01</ele>
    <time>2025-01-05T16:01:31Z</time>
</wpt>
<wpt lat="36.07406388376832" lon="140.2077403041078">
    <ele>1.01</ele>
    <time>2025-01-05T16:01:32Z</time>
</wpt>
<wpt lat="36.07408231101075" lon="140.20778187834753">
    <ele>1.01</ele>
    <time>2025-01-05T16:01:33Z</time>
</wpt>
<wpt lat="36.07410073825318" lon="140.20782345258726">
    <ele>1.01</ele>
    <time>2025-01-05T16:01:34Z</time>
</wpt>
<wpt lat="36.07411916549561" lon="140.20786502682699">
    <ele>1.01</ele>
    <time>2025-01-05T16:01:35Z</time>
</wpt>
<wpt lat="36.07413759273804" lon="140.20790660106672">
    <ele>1.00</ele>
    <time>2025-01-05T16:01:36Z</time>
</wpt>
<wpt lat="36.07415601998046" lon="140.20794817530646">
    <ele>1.00</ele>
    <time>2025-01-05T16:01:37Z</time>
</wpt>
<wpt lat="36.07417444722289" lon="140.20798974954619">
    <ele>1.00</ele>
    <time>2025-01-05T16:01:38Z</time>
</wpt>
<wpt lat="36.07419287446533" lon="140.20803132378592">
    <ele>1.00</ele>
    <time>2025-01-05T16:01:39Z</time>
</wpt>
<wpt lat="36.074211301707756" lon="140.20807289802565">
    <ele>1.00</ele>
    <time>2025-01-05T16:01:40Z</time>
</wpt>
<wpt lat="36.07423483897909" lon="140.20810814991555">
    <ele>1.00</ele>
    <time>2025-01-05T16:01:41Z</time>
</wpt>
<wpt lat="36.07425837625044" lon="140.20814340180547">
    <ele>1.00</ele>
    <time>2025-01-05T16:01:42Z</time>
</wpt>
<wpt lat="36.07428191352178" lon="140.20817865369537">
    <ele>1.00</ele>
    <time>2025-01-05T16:01:43Z</time>
</wpt>
<wpt lat="36.07430545079313" lon="140.20821390558530">
    <ele>1.00</ele>
    <time>2025-01-05T16:01:44Z</time>
</wpt>
<wpt lat="36.07432898806447" lon="140.20824915747519">
    <ele>1.00</ele>
    <time>2025-01-05T16:01:45Z</time>
</wpt>
<wpt lat="36.07435252533581" lon="140.20828440936512">
    <ele>1.00</ele>
    <time>2025-01-05T16:01:46Z</time>
</wpt>
<wpt lat="36.07437606260715" lon="140.20831966125502">
    <ele>1.00</ele>
    <time>2025-01-05T16:01:47Z</time>
</wpt>
<wpt lat="36.07439514015342" lon="140.20836257659926">
    <ele>1.00</ele>
    <time>2025-01-05T16:01:48Z</time>
</wpt>
<wpt lat="36.07441421769969" lon="140.20840549194349">
    <ele>1.00</ele>
    <time>2025-01-05T16:01:49Z</time>
</wpt>
<wpt lat="36.07443329524595" lon="140.20844840728773">
    <ele>1.00</ele>
    <time>2025-01-05T16:01:50Z</time>
</wpt>
<wpt lat="36.07445237279222" lon="140.20849132263197">
    <ele>1.00</ele>
    <time>2025-01-05T16:01:51Z</time>
</wpt>
<wpt lat="36.07447145033849" lon="140.2085342379762">
    <ele>1.00</ele>
    <time>2025-01-05T16:01:52Z</time>
</wpt>
<wpt lat="36.07448359058316" lon="140.20858359062208">
    <ele>1.00</ele>
    <time>2025-01-05T16:01:53Z</time>
</wpt>
<wpt lat="36.07449573082783" lon="140.20863294326796">
    <ele>1.00</ele>
    <time>2025-01-05T16:01:54Z</time>
</wpt>
<wpt lat="36.07450787107251" lon="140.20868229591383">
    <ele>1.00</ele>
    <time>2025-01-05T16:01:55Z</time>
</wpt>
<wpt lat="36.07452001131718" lon="140.20873164855971">
    <ele>1.00</ele>
    <time>2025-01-05T16:01:56Z</time>
</wpt>
<wpt lat="36.074532151561854" lon="140.20878100120558">
    <ele>1.00</ele>
    <time>2025-01-05T16:01:57Z</time>
</wpt>
<wpt lat="36.07452843516125" lon="140.20882544924069">
    <ele>1.00</ele>
    <time>2025-01-05T16:01:58Z</time>
</wpt>
<wpt lat="36.07452471876064" lon="140.20886989727578">
    <ele>1.00</ele>
    <time>2025-01-05T16:01:59Z</time>
</wpt>
<wpt lat="36.07452100236003" lon="140.20891434531089">
    <ele>1.00</ele>
    <time>2025-01-05T16:02:00Z</time>
</wpt>
<wpt lat="36.07451728595942" lon="140.20895879334600">
    <ele>1.00</ele>
    <time>2025-01-05T16:02:01Z</time>
</wpt>
<wpt lat="36.07451356955881" lon="140.20900324138111">
    <ele>1.00</ele>
    <time>2025-01-05T16:02:02Z</time>
</wpt>
<wpt lat="36.07450985315820" lon="140.20904768941620">
    <ele>1.00</ele>
    <time>2025-01-05T16:02:03Z</time>
</wpt>
<wpt lat="36.07450613675759" lon="140.2090921374513">
    <ele>1.00</ele>
    <time>2025-01-05T16:02:04Z</time>
</wpt>
<wpt lat="36.07450830465807" lon="140.20913907610907">
    <ele>1.00</ele>
    <time>2025-01-05T16:02:05Z</time>
</wpt>
<wpt lat="36.07451047255854" lon="140.20918601476683">
    <ele>1.00</ele>
    <time>2025-01-05T16:02:06Z</time>
</wpt>
<wpt lat="36.07451264045902" lon="140.20923295342459">
    <ele>1.00</ele>
    <time>2025-01-05T16:02:07Z</time>
</wpt>
<wpt lat="36.07451480835950" lon="140.20927989208235">
    <ele>1.00</ele>
    <time>2025-01-05T16:02:08Z</time>
</wpt>
<wpt lat="36.07451697625996" lon="140.20932683074011">
    <ele>1.00</ele>
    <time>2025-01-05T16:02:09Z</time>
</wpt>
<wpt lat="36.07451914416044" lon="140.20937376939787">
    <ele>1.00</ele>
    <time>2025-01-05T16:02:10Z</time>
</wpt>
<wpt lat="36.07452131206092" lon="140.20942070805563">
    <ele>1.00</ele>
    <time>2025-01-05T16:02:11Z</time>
</wpt>
<wpt lat="36.07452347996139" lon="140.2094676467134">
    <ele>1.00</ele>
    <time>2025-01-05T16:02:12Z</time>
</wpt>
<wpt lat="36.07452564786139" lon="140.20951190316214">
    <ele>1.01</ele>
    <time>2025-01-05T16:02:13Z</time>
</wpt>
<wpt lat="36.07452781576139" lon="140.20955615961088">
    <ele>1.01</ele>
    <time>2025-01-05T16:02:14Z</time>
</wpt>
<wpt lat="36.07452998366139" lon="140.20960041605963">
    <ele>1.02</ele>
    <time>2025-01-05T16:02:15Z</time>
</wpt>
<wpt lat="36.07453215156139" lon="140.20964467250838">
    <ele>1.02</ele>
    <time>2025-01-05T16:02:16Z</time>
</wpt>
<wpt lat="36.07453431946139" lon="140.20968892895712">
    <ele>1.03</ele>
    <time>2025-01-05T16:02:17Z</time>
</wpt>
<wpt lat="36.07453648736139" lon="140.20973318540587">
    <ele>1.04</ele>
    <time>2025-01-05T16:02:18Z</time>
</wpt>
<wpt lat="36.07453865526138" lon="140.20977744185461">
    <ele>1.04</ele>
    <time>2025-01-05T16:02:19Z</time>
</wpt>
<wpt lat="36.07454082316138" lon="140.20982169830336">
    <ele>1.05</ele>
    <time>2025-01-05T16:02:20Z</time>
</wpt>
<wpt lat="36.07455568874989" lon="140.20986614633847">
    <ele>1.04</ele>
    <time>2025-01-05T16:02:21Z</time>
</wpt>
<wpt lat="36.07457055433839" lon="140.20991059437355">
    <ele>1.04</ele>
    <time>2025-01-05T16:02:22Z</time>
</wpt>
<wpt lat="36.07458541992690" lon="140.20995504240867">
    <ele>1.03</ele>
    <time>2025-01-05T16:02:23Z</time>
</wpt>
<wpt lat="36.07460028551542" lon="140.20999949044378">
    <ele>1.02</ele>
    <time>2025-01-05T16:02:24Z</time>
</wpt>
<wpt lat="36.07461515110393" lon="140.21004393847889">
    <ele>1.01</ele>
    <time>2025-01-05T16:02:25Z</time>
</wpt>
<wpt lat="36.07463001669243" lon="140.21008838651397">
    <ele>1.01</ele>
    <time>2025-01-05T16:02:26Z</time>
</wpt>
<wpt lat="36.07464488228094" lon="140.21013283454909">
    <ele>1.00</ele>
    <time>2025-01-05T16:02:27Z</time>
</wpt>
<wpt lat="36.07467337460394" lon="140.21016348836639">
    <ele>1.00</ele>
    <time>2025-01-05T16:02:28Z</time>
</wpt>
<wpt lat="36.07470186692694" lon="140.21019414218372">
    <ele>1.00</ele>
    <time>2025-01-05T16:02:29Z</time>
</wpt>
<wpt lat="36.07473035924993" lon="140.21022479600103">
    <ele>1.00</ele>
    <time>2025-01-05T16:02:30Z</time>
</wpt>
<wpt lat="36.07475885157294" lon="140.21025544981833">
    <ele>1.00</ele>
    <time>2025-01-05T16:02:31Z</time>
</wpt>
<wpt lat="36.07478734389593" lon="140.21028610363564">
    <ele>1.00</ele>
    <time>2025-01-05T16:02:32Z</time>
</wpt>
<wpt lat="36.07481583621893" lon="140.21031675745297">
    <ele>1.00</ele>
    <time>2025-01-05T16:02:33Z</time>
</wpt>
<wpt lat="36.07484432854193" lon="140.21034741127028">
    <ele>1.00</ele>
    <time>2025-01-05T16:02:34Z</time>
</wpt>
<wpt lat="36.07487207752727" lon="140.21038603508009">
    <ele>1.00</ele>
    <time>2025-01-05T16:02:35Z</time>
</wpt>
<wpt lat="36.07489982651261" lon="140.21042465888991">
    <ele>1.00</ele>
    <time>2025-01-05T16:02:36Z</time>
</wpt>
<wpt lat="36.07492757549795" lon="140.21046328269972">
    <ele>1.00</ele>
    <time>2025-01-05T16:02:37Z</time>
</wpt>
<wpt lat="36.07495532448329" lon="140.21050190650953">
    <ele>1.00</ele>
    <time>2025-01-05T16:02:38Z</time>
</wpt>
<wpt lat="36.07498307346863" lon="140.21054053031935">
    <ele>1.00</ele>
    <time>2025-01-05T16:02:39Z</time>
</wpt>
<wpt lat="36.07501197860433" lon="140.21057092868818">
    <ele>1.00</ele>
    <time>2025-01-05T16:02:40Z</time>
</wpt>
<wpt lat="36.07504088374003" lon="140.21060132705702">
    <ele>1.00</ele>
    <time>2025-01-05T16:02:41Z</time>
</wpt>
<wpt lat="36.07506978887572" lon="140.21063172542586">
    <ele>1.00</ele>
    <time>2025-01-05T16:02:42Z</time>
</wpt>
<wpt lat="36.07509869401142" lon="140.21066212379469">
    <ele>1.00</ele>
    <time>2025-01-05T16:02:43Z</time>
</wpt>
<wpt lat="36.07512759914712" lon="140.21069252216353">
    <ele>1.00</ele>
    <time>2025-01-05T16:02:44Z</time>
</wpt>
<wpt lat="36.07515650428282" lon="140.21072292053236">
    <ele>1.00</ele>
    <time>2025-01-05T16:02:45Z</time>
</wpt>
<wpt lat="36.07516662106526" lon="140.21076941215529">
    <ele>1.00</ele>
    <time>2025-01-05T16:02:46Z</time>
</wpt>
<wpt lat="36.07517673784769" lon="140.21081590377821">
    <ele>1.00</ele>
    <time>2025-01-05T16:02:47Z</time>
</wpt>
<wpt lat="36.07518685463012" lon="140.21086239540114">
    <ele>1.00</ele>
    <time>2025-01-05T16:02:48Z</time>
</wpt>
<wpt lat="36.07519697141255" lon="140.21090888702406">
    <ele>1.00</ele>
    <time>2025-01-05T16:02:49Z</time>
</wpt>
<wpt lat="36.07520708819499" lon="140.21095537864699">
    <ele>1.00</ele>
    <time>2025-01-05T16:02:50Z</time>
</wpt>
<wpt lat="36.07521720497742" lon="140.2110018702699">
    <ele>1.00</ele>
    <time>2025-01-05T16:02:51Z</time>
</wpt>
<wpt lat="36.07523454801294" lon="140.21104018754156">
    <ele>1.00</ele>
    <time>2025-01-05T16:02:52Z</time>
</wpt>
<wpt lat="36.07525189104846" lon="140.21107850481320">
    <ele>1.00</ele>
    <time>2025-01-05T16:02:53Z</time>
</wpt>
<wpt lat="36.07526923408398" lon="140.21111682208485">
    <ele>1.00</ele>
    <time>2025-01-05T16:02:54Z</time>
</wpt>
<wpt lat="36.07528657711951" lon="140.21115513935646">
    <ele>1.00</ele>
    <time>2025-01-05T16:02:55Z</time>
</wpt>
<wpt lat="36.07530392015503" lon="140.21119345662811">
    <ele>1.00</ele>
    <time>2025-01-05T16:02:56Z</time>
</wpt>
<wpt lat="36.07532126319055" lon="140.21123177389975">
    <ele>1.00</ele>
    <time>2025-01-05T16:02:57Z</time>
</wpt>
<wpt lat="36.07533860622607" lon="140.2112700911714">
    <ele>1.00</ele>
    <time>2025-01-05T16:02:58Z</time>
</wpt>
<wpt lat="36.07532993471214" lon="140.21131837093367">
    <ele>1.00</ele>
    <time>2025-01-05T16:02:59Z</time>
</wpt>
<wpt lat="36.07532126319820" lon="140.21136665069594">
    <ele>1.00</ele>
    <time>2025-01-05T16:03:00Z</time>
</wpt>
<wpt lat="36.07531259168427" lon="140.21141493045820">
    <ele>1.00</ele>
    <time>2025-01-05T16:03:01Z</time>
</wpt>
<wpt lat="36.07530392017033" lon="140.21146321022047">
    <ele>1.00</ele>
    <time>2025-01-05T16:03:02Z</time>
</wpt>
<wpt lat="36.07529524865640" lon="140.21151148998274">
    <ele>1.00</ele>
    <time>2025-01-05T16:03:03Z</time>
</wpt>
<wpt lat="36.075286577142464" lon="140.211559769745">
    <ele>1.00</ele>
    <time>2025-01-05T16:03:04Z</time>
</wpt>
<wpt lat="36.07527682168121" lon="140.21160134398474">
    <ele>1.00</ele>
    <time>2025-01-05T16:03:05Z</time>
</wpt>
<wpt lat="36.07526706621996" lon="140.21164291822447">
    <ele>1.00</ele>
    <time>2025-01-05T16:03:06Z</time>
</wpt>
<wpt lat="36.07525731075872" lon="140.21168449246420">
    <ele>1.00</ele>
    <time>2025-01-05T16:03:07Z</time>
</wpt>
<wpt lat="36.07524755529747" lon="140.21172606670393">
    <ele>1.00</ele>
    <time>2025-01-05T16:03:08Z</time>
</wpt>
<wpt lat="36.07523779983622" lon="140.21176764094366">
    <ele>1.00</ele>
    <time>2025-01-05T16:03:09Z</time>
</wpt>
<wpt lat="36.07522804437498" lon="140.21180921518339">
    <ele>1.00</ele>
    <time>2025-01-05T16:03:10Z</time>
</wpt>
<wpt lat="36.07521828891373" lon="140.21185078942312">
    <ele>1.00</ele>
    <time>2025-01-05T16:03:11Z</time>
</wpt>
<wpt lat="36.07520853345248" lon="140.21189236366286">
    <ele>1.00</ele>
    <time>2025-01-05T16:03:12Z</time>
</wpt>
<wpt lat="36.07519010644371" lon="140.21193393790259">
    <ele>1.00</ele>
    <time>2025-01-05T16:03:13Z</time>
</wpt>
<wpt lat="36.07517167943494" lon="140.21197551214232">
    <ele>1.00</ele>
    <time>2025-01-05T16:03:14Z</time>
</wpt>
<wpt lat="36.07515325242618" lon="140.21201708638205">
    <ele>1.00</ele>
    <time>2025-01-05T16:03:15Z</time>
</wpt>
<wpt lat="36.07513482541741" lon="140.21205866062178">
    <ele>1.00</ele>
    <time>2025-01-05T16:03:16Z</time>
</wpt>
<wpt lat="36.07511639840865" lon="140.21210023486151">
    <ele>1.00</ele>
    <time>2025-01-05T16:03:17Z</time>
</wpt>
<wpt lat="36.07509797139988" lon="140.21214180910124">
    <ele>1.00</ele>
    <time>2025-01-05T16:03:18Z</time>
</wpt>
<wpt lat="36.07507954439112" lon="140.21218338334097">
    <ele>1.00</ele>
    <time>2025-01-05T16:03:19Z</time>
</wpt>
<wpt lat="36.07506111738235" lon="140.2122249575807">
    <ele>1.00</ele>
    <time>2025-01-05T16:03:20Z</time>
</wpt>
<wpt lat="36.07506235617387" lon="140.21227017196125">
    <ele>1.00</ele>
    <time>2025-01-05T16:03:21Z</time>
</wpt>
<wpt lat="36.07506359496541" lon="140.21231538634177">
    <ele>1.00</ele>
    <time>2025-01-05T16:03:22Z</time>
</wpt>
<wpt lat="36.07506483375693" lon="140.21236060072232">
    <ele>1.00</ele>
    <time>2025-01-05T16:03:23Z</time>
</wpt>
<wpt lat="36.07506607254847" lon="140.21240581510284">
    <ele>1.00</ele>
    <time>2025-01-05T16:03:24Z</time>
</wpt>
<wpt lat="36.07506731133999" lon="140.21245102948339">
    <ele>1.00</ele>
    <time>2025-01-05T16:03:25Z</time>
</wpt>
<wpt lat="36.07506855013153" lon="140.21249624386391">
    <ele>1.00</ele>
    <time>2025-01-05T16:03:26Z</time>
</wpt>
<wpt lat="36.07506978892305" lon="140.21254145824446">
    <ele>1.00</ele>
    <time>2025-01-05T16:03:27Z</time>
</wpt>
<wpt lat="36.07507102771458" lon="140.21258667262501">
    <ele>1.00</ele>
    <time>2025-01-05T16:03:28Z</time>
</wpt>
<wpt lat="36.07507226650611" lon="140.21263188700553">
    <ele>1.00</ele>
    <time>2025-01-05T16:03:29Z</time>
</wpt>
<wpt lat="36.07507350529764" lon="140.21267710138608">
    <ele>1.00</ele>
    <time>2025-01-05T16:03:30Z</time>
</wpt>
<wpt lat="36.07507474408917" lon="140.21272231576660">
    <ele>1.00</ele>
    <time>2025-01-05T16:03:31Z</time>
</wpt>
<wpt lat="36.07507598288070" lon="140.21276753014715">
    <ele>1.00</ele>
    <time>2025-01-05T16:03:32Z</time>
</wpt>
<wpt lat="36.07507722167223" lon="140.21281274452767">
    <ele>1.00</ele>
    <time>2025-01-05T16:03:33Z</time>
</wpt>
<wpt lat="36.07507846046376" lon="140.21285795890822">
    <ele>1.00</ele>
    <time>2025-01-05T16:03:34Z</time>
</wpt>
<wpt lat="36.07508520499207" lon="140.21290206634535">
    <ele>1.00</ele>
    <time>2025-01-05T16:03:35Z</time>
</wpt>
<wpt lat="36.07509194952039" lon="140.21294617378248">
    <ele>1.00</ele>
    <time>2025-01-05T16:03:36Z</time>
</wpt>
<wpt lat="36.07509869404871" lon="140.21299028121962">
    <ele>1.00</ele>
    <time>2025-01-05T16:03:37Z</time>
</wpt>
<wpt lat="36.07510543857703" lon="140.21303438865675">
    <ele>1.00</ele>
    <time>2025-01-05T16:03:38Z</time>
</wpt>
<wpt lat="36.07511218310534" lon="140.21307849609389">
    <ele>1.00</ele>
    <time>2025-01-05T16:03:39Z</time>
</wpt>
<wpt lat="36.07511892763366" lon="140.21312260353102">
    <ele>1.00</ele>
    <time>2025-01-05T16:03:40Z</time>
</wpt>
<wpt lat="36.07512567216197" lon="140.21316671096815">
    <ele>1.00</ele>
    <time>2025-01-05T16:03:41Z</time>
</wpt>
<wpt lat="36.07513241669029" lon="140.21321081840529">
    <ele>1.00</ele>
    <time>2025-01-05T16:03:42Z</time>
</wpt>
<wpt lat="36.07513916121861" lon="140.21325492584242">
    <ele>1.00</ele>
    <time>2025-01-05T16:03:43Z</time>
</wpt>
<wpt lat="36.07514879624472" lon="140.21329664909376">
    <ele>1.00</ele>
    <time>2025-01-05T16:03:44Z</time>
</wpt>
<wpt lat="36.07515843127083" lon="140.21333837234511">
    <ele>1.00</ele>
    <time>2025-01-05T16:03:45Z</time>
</wpt>
<wpt lat="36.07516806629693" lon="140.21338009559645">
    <ele>1.00</ele>
    <time>2025-01-05T16:03:46Z</time>
</wpt>
<wpt lat="36.07517770132304" lon="140.21342181884779">
    <ele>1.00</ele>
    <time>2025-01-05T16:03:47Z</time>
</wpt>
<wpt lat="36.07518733634915" lon="140.21346354209913">
    <ele>1.00</ele>
    <time>2025-01-05T16:03:48Z</time>
</wpt>
<wpt lat="36.07519697137526" lon="140.21350526535048">
    <ele>1.00</ele>
    <time>2025-01-05T16:03:49Z</time>
</wpt>
<wpt lat="36.07520660640137" lon="140.21354698860182">
    <ele>1.00</ele>
    <time>2025-01-05T16:03:50Z</time>
</wpt>
<wpt lat="36.07521624142748" lon="140.21358871185316">
    <ele>1.00</ele>
    <time>2025-01-05T16:03:51Z</time>
</wpt>
<wpt lat="36.07522587645359" lon="140.21363043510451">
    <ele>1.00</ele>
    <time>2025-01-05T16:03:52Z</time>
</wpt>
<wpt lat="36.07523551147970" lon="140.21367215835585">
    <ele>1.00</ele>
    <time>2025-01-05T16:03:53Z</time>
</wpt>
<wpt lat="36.07524514650581" lon="140.21371388160719">
    <ele>1.00</ele>
    <time>2025-01-05T16:03:54Z</time>
</wpt>
<wpt lat="36.07525478153191" lon="140.21375560485853">
    <ele>1.00</ele>
    <time>2025-01-05T16:03:55Z</time>
</wpt>
<wpt lat="36.07526441655802" lon="140.21379732810988">
    <ele>1.00</ele>
    <time>2025-01-05T16:03:56Z</time>
</wpt>
<wpt lat="36.07527405158413" lon="140.21383905136122">
    <ele>1.00</ele>
    <time>2025-01-05T16:03:57Z</time>
</wpt>
<wpt lat="36.07528368661024" lon="140.21388077461256">
    <ele>1.00</ele>
    <time>2025-01-05T16:03:58Z</time>
</wpt>
<wpt lat="36.07529332163634" lon="140.21392249786390">
    <ele>1.00</ele>
    <time>2025-01-05T16:03:59Z</time>
</wpt>
<wpt lat="36.07530295666245" lon="140.21396422111525">
    <ele>1.00</ele>
    <time>2025-01-05T16:04:00Z</time>
</wpt>
<wpt lat="36.075312591688565" lon="140.2140059443666">
    <ele>1.00</ele>
    <time>2025-01-05T16:04:01Z</time>
</wpt>
<wpt lat="36.07531495664652" lon="140.21405081040828">
    <ele>1.00</ele>
    <time>2025-01-05T16:04:02Z</time>
</wpt>
<wpt lat="36.07531732160447" lon="140.21409567645000">
    <ele>1.00</ele>
    <time>2025-01-05T16:04:03Z</time>
</wpt>
<wpt lat="36.07531968656243" lon="140.21414054249169">
    <ele>1.00</ele>
    <time>2025-01-05T16:04:04Z</time>
</wpt>
<wpt lat="36.07532205152039" lon="140.21418540853341">
    <ele>1.00</ele>
    <time>2025-01-05T16:04:05Z</time>
</wpt>
<wpt lat="36.07532441647834" lon="140.21423027457510">
    <ele>1.00</ele>
    <time>2025-01-05T16:04:06Z</time>
</wpt>
<wpt lat="36.07532678143630" lon="140.21427514061682">
    <ele>1.00</ele>
    <time>2025-01-05T16:04:07Z</time>
</wpt>
<wpt lat="36.07532914639425" lon="140.21432000665851">
    <ele>1.00</ele>
    <time>2025-01-05T16:04:08Z</time>
</wpt>
<wpt lat="36.07533151135220" lon="140.21436487270023">
    <ele>1.00</ele>
    <time>2025-01-05T16:04:09Z</time>
</wpt>
<wpt lat="36.07533387631016" lon="140.21440973874192">
    <ele>1.00</ele>
    <time>2025-01-05T16:04:10Z</time>
</wpt>
<wpt lat="36.07533624126811" lon="140.21445460478364">
    <ele>1.00</ele>
    <time>2025-01-05T16:04:11Z</time>
</wpt>
<wpt lat="36.07533860622607" lon="140.21449947082533">
    <ele>1.00</ele>
    <time>2025-01-05T16:04:12Z</time>
</wpt>
<wpt lat="36.07532559894656" lon="140.21454059803023">
    <ele>1.00</ele>
    <time>2025-01-05T16:04:13Z</time>
</wpt>
<wpt lat="36.07531259166705" lon="140.21458172523512">
    <ele>1.00</ele>
    <time>2025-01-05T16:04:14Z</time>
</wpt>
<wpt lat="36.07529958438754" lon="140.21462285244002">
    <ele>1.00</ele>
    <time>2025-01-05T16:04:15Z</time>
</wpt>
<wpt lat="36.07528657710803" lon="140.21466397964491">
    <ele>1.00</ele>
    <time>2025-01-05T16:04:16Z</time>
</wpt>
<wpt lat="36.07527356982852" lon="140.21470510684981">
    <ele>1.00</ele>
    <time>2025-01-05T16:04:17Z</time>
</wpt>
<wpt lat="36.07526056254900" lon="140.21474623405470">
    <ele>1.00</ele>
    <time>2025-01-05T16:04:18Z</time>
</wpt>
<wpt lat="36.07524755526950" lon="140.21478736125960">
    <ele>1.00</ele>
    <time>2025-01-05T16:04:19Z</time>
</wpt>
<wpt lat="36.07523454798999" lon="140.21482848846449">
    <ele>1.00</ele>
    <time>2025-01-05T16:04:20Z</time>
</wpt>
<wpt lat="36.07522154071048" lon="140.21486961566939">
    <ele>1.00</ele>
    <time>2025-01-05T16:04:21Z</time>
</wpt>
<wpt lat="36.07520853343097" lon="140.21491074287428">
    <ele>1.00</ele>
    <time>2025-01-05T16:04:22Z</time>
</wpt>
<wpt lat="36.07519552615146" lon="140.21495187007918">
    <ele>1.00</ele>
    <time>2025-01-05T16:04:23Z</time>
</wpt>
<wpt lat="36.07518251887195" lon="140.21499299728407">
    <ele>1.00</ele>
    <time>2025-01-05T16:04:24Z</time>
</wpt>
<wpt lat="36.07517818310662" lon="140.21504020416273">
    <ele>1.00</ele>
    <time>2025-01-05T16:04:25Z</time>
</wpt>
<wpt lat="36.07517384734128" lon="140.21508741104140">
    <ele>1.00</ele>
    <time>2025-01-05T16:04:26Z</time>
</wpt>
<wpt lat="36.07516951157594" lon="140.21513461792006">
    <ele>1.00</ele>
    <time>2025-01-05T16:04:27Z</time>
</wpt>
<wpt lat="36.07516517581061" lon="140.21518182479872">
    <ele>1.00</ele>
    <time>2025-01-05T16:04:28Z</time>
</wpt>
<wpt lat="36.07516084004528" lon="140.21522903167738">
    <ele>1.00</ele>
    <time>2025-01-05T16:04:29Z</time>
</wpt>
<wpt lat="36.07515650427995" lon="140.21527623855604">
    <ele>1.00</ele>
    <time>2025-01-05T16:04:30Z</time>
</wpt>
<wpt lat="36.07515216851461" lon="140.21532344543471">
    <ele>1.00</ele>
    <time>2025-01-05T16:04:31Z</time>
</wpt>
<wpt lat="36.07514783274927" lon="140.21537065231337">
    <ele>1.00</ele>
    <time>2025-01-05T16:04:32Z</time>
</wpt>
<wpt lat="36.07514349698394" lon="140.21541785919203">
    <ele>1.00</ele>
    <time>2025-01-05T16:04:33Z</time>
</wpt>
<wpt lat="36.07513916121861" lon="140.2154650660707">
    <ele>1.00</ele>
    <time>2025-01-05T16:04:34Z</time>
</wpt>
<wpt lat="36.07512759916433" lon="140.21550778889718">
    <ele>1.00</ele>
    <time>2025-01-05T16:04:35Z</time>
</wpt>
<wpt lat="36.07511603711005" lon="140.21555051172368">
    <ele>1.00</ele>
    <time>2025-01-05T16:04:36Z</time>
</wpt>
<wpt lat="36.07510447505577" lon="140.21559323455017">
    <ele>1.00</ele>
    <time>2025-01-05T16:04:37Z</time>
</wpt>
<wpt lat="36.07509291300149" lon="140.21563595737666">
    <ele>1.00</ele>
    <time>2025-01-05T16:04:38Z</time>
</wpt>
<wpt lat="36.07508135094722" lon="140.21567868020315">
    <ele>1.00</ele>
    <time>2025-01-05T16:04:39Z</time>
</wpt>
<wpt lat="36.07506978889293" lon="140.21572140302965">
    <ele>1.00</ele>
    <time>2025-01-05T16:04:40Z</time>
</wpt>
<wpt lat="36.07505822683866" lon="140.21576412585614">
    <ele>1.00</ele>
    <time>2025-01-05T16:04:41Z</time>
</wpt>
<wpt lat="36.07504666478438" lon="140.21580684868263">
    <ele>1.00</ele>
    <time>2025-01-05T16:04:42Z</time>
</wpt>
<wpt lat="36.07503510273010" lon="140.21584957150912">
    <ele>1.00</ele>
    <time>2025-01-05T16:04:43Z</time>
</wpt>
<wpt lat="36.07502354067582" lon="140.21589229433562">
    <ele>1.00</ele>
    <time>2025-01-05T16:04:44Z</time>
</wpt>
<wpt lat="36.07501197862154" lon="140.21593501716211">
    <ele>1.00</ele>
    <time>2025-01-05T16:04:45Z</time>
</wpt>
<wpt lat="36.07500041656726" lon="140.2159777399886">
    <ele>1.00</ele>
    <time>2025-01-05T16:04:46Z</time>
</wpt>
<wpt lat="36.07501703701387" lon="140.21601976126317">
    <ele>1.00</ele>
    <time>2025-01-05T16:04:47Z</time>
</wpt>
<wpt lat="36.07503365746049" lon="140.21606178253774">
    <ele>1.00</ele>
    <time>2025-01-05T16:04:48Z</time>
</wpt>
<wpt lat="36.07505027790710" lon="140.21610380381230">
    <ele>1.00</ele>
    <time>2025-01-05T16:04:49Z</time>
</wpt>
<wpt lat="36.07506689835371" lon="140.21614582508687">
    <ele>1.00</ele>
    <time>2025-01-05T16:04:50Z</time>
</wpt>
<wpt lat="36.07508351880032" lon="140.21618784636144">
    <ele>1.00</ele>
    <time>2025-01-05T16:04:51Z</time>
</wpt>
<wpt lat="36.07510013924693" lon="140.21622986763600">
    <ele>1.00</ele>
    <time>2025-01-05T16:04:52Z</time>
</wpt>
<wpt lat="36.07511675969354" lon="140.21627188891057">
    <ele>1.00</ele>
    <time>2025-01-05T16:04:53Z</time>
</wpt>
<wpt lat="36.07513338014015" lon="140.21631391018514">
    <ele>1.00</ele>
    <time>2025-01-05T16:04:54Z</time>
</wpt>
<wpt lat="36.07515000058677" lon="140.21635593145970">
    <ele>1.00</ele>
    <time>2025-01-05T16:04:55Z</time>
</wpt>
<wpt lat="36.07516662103338" lon="140.21639795273427">
    <ele>1.00</ele>
    <time>2025-01-05T16:04:56Z</time>
</wpt>
<wpt lat="36.07518324147999" lon="140.21643997400884">
    <ele>1.00</ele>
    <time>2025-01-05T16:04:57Z</time>
</wpt>
<wpt lat="36.0751998619266" lon="140.2164819952834">
    <ele>1.00</ele>
    <time>2025-01-05T16:04:58Z</time>
</wpt>
</gpx>
