<?xml version="1.0"?>
<gpx version="1.1" creator="gpxgenerator.com">
<wpt lat="36.07571497382793" lon="140.2144759290558">
    <ele>1.00</ele>
    <time>2025-01-05T15:57:36Z</time>
</wpt>
<wpt lat="36.07572620427699" lon="140.21443999377959">
    <ele>1.00</ele>
    <time>2025-01-05T15:57:37Z</time>
</wpt>
<wpt lat="36.07573743472606" lon="140.21440405850342">
    <ele>1.00</ele>
    <time>2025-01-05T15:57:38Z</time>
</wpt>
<wpt lat="36.07574866517512" lon="140.21436812322722">
    <ele>1.00</ele>
    <time>2025-01-05T15:57:39Z</time>
</wpt>
<wpt lat="36.07575989562418" lon="140.21433218795104">
    <ele>1.00</ele>
    <time>2025-01-05T15:57:40Z</time>
</wpt>
<wpt lat="36.07577112607324" lon="140.21429625267484">
    <ele>1.00</ele>
    <time>2025-01-05T15:57:41Z</time>
</wpt>
<wpt lat="36.07578235652231" lon="140.21426031739864">
    <ele>1.00</ele>
    <time>2025-01-05T15:57:42Z</time>
</wpt>
<wpt lat="36.07579358697137" lon="140.21422438212247">
    <ele>1.00</ele>
    <time>2025-01-05T15:57:43Z</time>
</wpt>
<wpt lat="36.07580481742043" lon="140.21418844684626">
    <ele>1.00</ele>
    <time>2025-01-05T15:57:44Z</time>
</wpt>
<wpt lat="36.07581604786949" lon="140.21415251157006">
    <ele>1.00</ele>
    <time>2025-01-05T15:57:45Z</time>
</wpt>
<wpt lat="36.07582727831856" lon="140.21411657629389">
    <ele>1.00</ele>
    <time>2025-01-05T15:57:46Z</time>
</wpt>
<wpt lat="36.07583850876762" lon="140.21408064101769">
    <ele>1.00</ele>
    <time>2025-01-05T15:57:47Z</time>
</wpt>
<wpt lat="36.07584973921669" lon="140.21404470574151">
    <ele>1.00</ele>
    <time>2025-01-05T15:57:48Z</time>
</wpt>
<wpt lat="36.07586096966575" lon="140.21400877046531">
    <ele>1.00</ele>
    <time>2025-01-05T15:57:49Z</time>
</wpt>
<wpt lat="36.07587220011482" lon="140.21397283518911">
    <ele>1.00</ele>
    <time>2025-01-05T15:57:50Z</time>
</wpt>
<wpt lat="36.07588343056388" lon="140.21393689991294">
    <ele>1.00</ele>
    <time>2025-01-05T15:57:51Z</time>
</wpt>
<wpt lat="36.07589466101294" lon="140.21390096463674">
    <ele>1.00</ele>
    <time>2025-01-05T15:57:52Z</time>
</wpt>
<wpt lat="36.07590589146201" lon="140.21386502936056">
    <ele>1.00</ele>
    <time>2025-01-05T15:57:53Z</time>
</wpt>
<wpt lat="36.07591712191107" lon="140.21382909408436">
    <ele>1.00</ele>
    <time>2025-01-05T15:57:54Z</time>
</wpt>
<wpt lat="36.07592835236013" lon="140.21379315880816">
    <ele>1.00</ele>
    <time>2025-01-05T15:57:55Z</time>
</wpt>
<wpt lat="36.07593958280919" lon="140.21375722353199">
    <ele>1.00</ele>
    <time>2025-01-05T15:57:56Z</time>
</wpt>
<wpt lat="36.07595081325826" lon="140.21372128825578">
    <ele>1.00</ele>
    <time>2025-01-05T15:57:57Z</time>
</wpt>
<wpt lat="36.07596204370732" lon="140.21368535297958">
    <ele>1.00</ele>
    <time>2025-01-05T15:57:58Z</time>
</wpt>
<wpt lat="36.07596644604335" lon="140.21367126635133">
    <ele>1.00</ele>
    <time>2025-01-05T15:57:58.392Z</time>
</wpt>
<wpt lat="36.07597091972541" lon="140.21364843400443">
    <ele>1.00</ele>
    <time>2025-01-05T15:57:59Z</time>
</wpt>
<wpt lat="36.07597827775513" lon="140.21361088080226">
    <ele>1.01</ele>
    <time>2025-01-05T15:58:00Z</time>
</wpt>
<wpt lat="36.07598563578483" lon="140.21357332760010">
    <ele>1.02</ele>
    <time>2025-01-05T15:58:01Z</time>
</wpt>
<wpt lat="36.07599299381454" lon="140.21353577439794">
    <ele>1.02</ele>
    <time>2025-01-05T15:58:02Z</time>
</wpt>
<wpt lat="36.07600035184425" lon="140.21349822119578">
    <ele>1.03</ele>
    <time>2025-01-05T15:58:03Z</time>
</wpt>
<wpt lat="36.07600770987396" lon="140.21346066799362">
    <ele>1.04</ele>
    <time>2025-01-05T15:58:04Z</time>
</wpt>
<wpt lat="36.07601506790367" lon="140.21342311479145">
    <ele>1.04</ele>
    <time>2025-01-05T15:58:05Z</time>
</wpt>
<wpt lat="36.07602242593338" lon="140.21338556158929">
    <ele>1.05</ele>
    <time>2025-01-05T15:58:06Z</time>
</wpt>
<wpt lat="36.07602978396309" lon="140.21334800838713">
    <ele>1.05</ele>
    <time>2025-01-05T15:58:07Z</time>
</wpt>
<wpt lat="36.07603581754745" lon="140.21331721476136">
    <ele>1.06</ele>
    <time>2025-01-05T15:58:07.820Z</time>
</wpt>
<wpt lat="36.07603543915755" lon="140.21330995816680">
    <ele>1.06</ele>
    <time>2025-01-05T15:58:08Z</time>
</wpt>
<wpt lat="36.07603333699146" lon="140.21326964375251">
    <ele>1.05</ele>
    <time>2025-01-05T15:58:09Z</time>
</wpt>
<wpt lat="36.07603123482536" lon="140.21322932933822">
    <ele>1.04</ele>
    <time>2025-01-05T15:58:10Z</time>
</wpt>
<wpt lat="36.07602913265927" lon="140.21318901492393">
    <ele>1.04</ele>
    <time>2025-01-05T15:58:11Z</time>
</wpt>
<wpt lat="36.07602703049318" lon="140.21314870050966">
    <ele>1.03</ele>
    <time>2025-01-05T15:58:12Z</time>
</wpt>
<wpt lat="36.07602492832709" lon="140.21310838609537">
    <ele>1.02</ele>
    <time>2025-01-05T15:58:13Z</time>
</wpt>
<wpt lat="36.07602282616099" lon="140.21306807168108">
    <ele>1.02</ele>
    <time>2025-01-05T15:58:14Z</time>
</wpt>
<wpt lat="36.07602072399489" lon="140.21302775726679">
    <ele>1.01</ele>
    <time>2025-01-05T15:58:15Z</time>
</wpt>
<wpt lat="36.07601862182880" lon="140.21298744285252">
    <ele>1.00</ele>
    <time>2025-01-05T15:58:16Z</time>
</wpt>
<wpt lat="36.07601847467718" lon="140.2129846208435">
    <ele>1.00</ele>
    <time>2025-01-05T15:58:16.070Z</time>
</wpt>
<wpt lat="36.07600772078639" lon="140.21295075263026">
    <ele>1.00</ele>
    <time>2025-01-05T15:58:17Z</time>
</wpt>
<wpt lat="36.07599615746295" lon="140.21291433519670">
    <ele>1.00</ele>
    <time>2025-01-05T15:58:18Z</time>
</wpt>
<wpt lat="36.07598459413952" lon="140.21287791776311">
    <ele>1.00</ele>
    <time>2025-01-05T15:58:19Z</time>
</wpt>
<wpt lat="36.07597303081609" lon="140.21284150032952">
    <ele>1.00</ele>
    <time>2025-01-05T15:58:20Z</time>
</wpt>
<wpt lat="36.07596146749265" lon="140.21280508289593">
    <ele>1.00</ele>
    <time>2025-01-05T15:58:21Z</time>
</wpt>
<wpt lat="36.07594990416923" lon="140.21276866546233">
    <ele>1.00</ele>
    <time>2025-01-05T15:58:22Z</time>
</wpt>
<wpt lat="36.07593834084579" lon="140.21273224802874">
    <ele>1.00</ele>
    <time>2025-01-05T15:58:23Z</time>
</wpt>
<wpt lat="36.07592677752236" lon="140.21269583059515">
    <ele>1.00</ele>
    <time>2025-01-05T15:58:24Z</time>
</wpt>
<wpt lat="36.07592308882219" lon="140.21268421343385">
    <ele>1.00</ele>
    <time>2025-01-05T15:58:24.319Z</time>
</wpt>
<wpt lat="36.07591092040624" lon="140.21266207301761">
    <ele>1.00</ele>
    <time>2025-01-05T15:58:25Z</time>
</wpt>
<wpt lat="36.07589305195403" lon="140.21262956139319">
    <ele>1.00</ele>
    <time>2025-01-05T15:58:26Z</time>
</wpt>
<wpt lat="36.07587518350183" lon="140.21259704976876">
    <ele>1.00</ele>
    <time>2025-01-05T15:58:27Z</time>
</wpt>
<wpt lat="36.07585731504962" lon="140.21256453814433">
    <ele>1.00</ele>
    <time>2025-01-05T15:58:28Z</time>
</wpt>
<wpt lat="36.07583944659742" lon="140.21253202651991">
    <ele>1.00</ele>
    <time>2025-01-05T15:58:29Z</time>
</wpt>
<wpt lat="36.07582157814522" lon="140.21249951489551">
    <ele>1.00</ele>
    <time>2025-01-05T15:58:30Z</time>
</wpt>
<wpt lat="36.07580370969301" lon="140.21246700327109">
    <ele>1.00</ele>
    <time>2025-01-05T15:58:31Z</time>
</wpt>
<wpt lat="36.07578584124081" lon="140.21243449164666">
    <ele>1.00</ele>
    <time>2025-01-05T15:58:32Z</time>
</wpt>
<wpt lat="36.0757756740915" lon="140.21241599253236">
    <ele>1.00</ele>
    <time>2025-01-05T15:58:32.569Z</time>
</wpt>
<wpt lat="36.07576751975505" lon="140.21240366152344">
    <ele>1.00</ele>
    <time>2025-01-05T15:58:33Z</time>
</wpt>
<wpt lat="36.07574860018091" lon="140.21237505129395">
    <ele>1.00</ele>
    <time>2025-01-05T15:58:34Z</time>
</wpt>
<wpt lat="36.07572968060676" lon="140.21234644106445">
    <ele>1.00</ele>
    <time>2025-01-05T15:58:35Z</time>
</wpt>
<wpt lat="36.07571076103262" lon="140.21231783083496">
    <ele>1.00</ele>
    <time>2025-01-05T15:58:36Z</time>
</wpt>
<wpt lat="36.07569184145848" lon="140.21228922060547">
    <ele>1.00</ele>
    <time>2025-01-05T15:58:37Z</time>
</wpt>
<wpt lat="36.07567292188434" lon="140.21226061037598">
    <ele>1.00</ele>
    <time>2025-01-05T15:58:38Z</time>
</wpt>
<wpt lat="36.07565400231019" lon="140.21223200014649">
    <ele>1.00</ele>
    <time>2025-01-05T15:58:39Z</time>
</wpt>
<wpt lat="36.07563508273606" lon="140.21220338991699">
    <ele>1.00</ele>
    <time>2025-01-05T15:58:40Z</time>
</wpt>
<wpt lat="36.075619587604834" lon="140.21217995813905">
    <ele>1.00</ele>
    <time>2025-01-05T15:58:40.819Z</time>
</wpt>
<wpt lat="36.07561642455315" lon="140.21217398490396">
    <ele>1.00</ele>
    <time>2025-01-05T15:58:41Z</time>
</wpt>
<wpt lat="36.07559894912950" lon="140.21214098360508">
    <ele>1.00</ele>
    <time>2025-01-05T15:58:42Z</time>
</wpt>
<wpt lat="36.07558147370584" lon="140.21210798230621">
    <ele>1.00</ele>
    <time>2025-01-05T15:58:43Z</time>
</wpt>
<wpt lat="36.07556399828218" lon="140.21207498100733">
    <ele>1.00</ele>
    <time>2025-01-05T15:58:44Z</time>
</wpt>
<wpt lat="36.07554652285853" lon="140.21204197970849">
    <ele>1.00</ele>
    <time>2025-01-05T15:58:45Z</time>
</wpt>
<wpt lat="36.07552904743488" lon="140.21200897840961">
    <ele>1.00</ele>
    <time>2025-01-05T15:58:46Z</time>
</wpt>
<wpt lat="36.07551157201122" lon="140.21197597711074">
    <ele>1.00</ele>
    <time>2025-01-05T15:58:47Z</time>
</wpt>
<wpt lat="36.07549409658756" lon="140.21194297581187">
    <ele>1.00</ele>
    <time>2025-01-05T15:58:48Z</time>
</wpt>
<wpt lat="36.07547662116391" lon="140.21190997451302">
    <ele>1.00</ele>
    <time>2025-01-05T15:58:49Z</time>
</wpt>
<wpt lat="36.07545914574025" lon="140.21187697321415">
    <ele>1.00</ele>
    <time>2025-01-05T15:58:50Z</time>
</wpt>
<wpt lat="36.07545482931061" lon="140.21186882189332">
    <ele>1.00</ele>
    <time>2025-01-05T15:58:50.247Z</time>
</wpt>
<wpt lat="36.07545275157219" lon="140.21183968743631">
    <ele>1.00</ele>
    <time>2025-01-05T15:58:51Z</time>
</wpt>
<wpt lat="36.07544999229142" lon="140.21180099625832">
    <ele>1.00</ele>
    <time>2025-01-05T15:58:52Z</time>
</wpt>
<wpt lat="36.07544723301066" lon="140.21176230508033">
    <ele>1.00</ele>
    <time>2025-01-05T15:58:53Z</time>
</wpt>
<wpt lat="36.07544447372990" lon="140.21172361390234">
    <ele>1.00</ele>
    <time>2025-01-05T15:58:54Z</time>
</wpt>
<wpt lat="36.07544171444913" lon="140.21168492272437">
    <ele>1.00</ele>
    <time>2025-01-05T15:58:55Z</time>
</wpt>
<wpt lat="36.07543895516837" lon="140.21164623154638">
    <ele>1.00</ele>
    <time>2025-01-05T15:58:56Z</time>
</wpt>
<wpt lat="36.07543619588760" lon="140.21160754036839">
    <ele>1.00</ele>
    <time>2025-01-05T15:58:57Z</time>
</wpt>
<wpt lat="36.07543343660684" lon="140.21156884919043">
    <ele>1.00</ele>
    <time>2025-01-05T15:58:58Z</time>
</wpt>
<wpt lat="36.07543067732607" lon="140.21153015801244">
    <ele>1.00</ele>
    <time>2025-01-05T15:58:59Z</time>
</wpt>
<wpt lat="36.07542881481155" lon="140.2115040414673">
    <ele>1.00</ele>
    <time>2025-01-05T15:58:59.675Z</time>
</wpt>
<wpt lat="36.07543216245409" lon="140.21149102412843">
    <ele>1.00</ele>
    <time>2025-01-05T15:59:00Z</time>
</wpt>
<wpt lat="36.07544246289265" lon="140.21145097077815">
    <ele>1.00</ele>
    <time>2025-01-05T15:59:01Z</time>
</wpt>
<wpt lat="36.07545276333121" lon="140.21141091742786">
    <ele>1.00</ele>
    <time>2025-01-05T15:59:02Z</time>
</wpt>
<wpt lat="36.07546306376976" lon="140.21137086407754">
    <ele>1.00</ele>
    <time>2025-01-05T15:59:03Z</time>
</wpt>
<wpt lat="36.07547336420832" lon="140.21133081072725">
    <ele>1.00</ele>
    <time>2025-01-05T15:59:04Z</time>
</wpt>
<wpt lat="36.07548366464688" lon="140.21129075737696">
    <ele>1.00</ele>
    <time>2025-01-05T15:59:05Z</time>
</wpt>
<wpt lat="36.075489515295985" lon="140.21126800707398">
    <ele>1.00</ele>
    <time>2025-01-05T15:59:05.568Z</time>
</wpt>
<wpt lat="36.07549481310892" lon="140.21125096474805">
    <ele>1.00</ele>
    <time>2025-01-05T15:59:06Z</time>
</wpt>
<wpt lat="36.07550707656479" lon="140.21121151491951">
    <ele>1.00</ele>
    <time>2025-01-05T15:59:07Z</time>
</wpt>
<wpt lat="36.07551934002066" lon="140.21117206509101">
    <ele>1.00</ele>
    <time>2025-01-05T15:59:08Z</time>
</wpt>
<wpt lat="36.07553160347653" lon="140.21113261526247">
    <ele>1.00</ele>
    <time>2025-01-05T15:59:09Z</time>
</wpt>
<wpt lat="36.07554386693241" lon="140.21109316543394">
    <ele>1.00</ele>
    <time>2025-01-05T15:59:10Z</time>
</wpt>
<wpt lat="36.07555613038828" lon="140.21105371560540">
    <ele>1.00</ele>
    <time>2025-01-05T15:59:11Z</time>
</wpt>
<wpt lat="36.07556839384415" lon="140.21101426577687">
    <ele>1.00</ele>
    <time>2025-01-05T15:59:12Z</time>
</wpt>
<wpt lat="36.07557623019245" lon="140.21098905733643">
    <ele>1.00</ele>
    <time>2025-01-05T15:59:12.639Z</time>
</wpt>
<wpt lat="36.07557623019245" lon="140.21097459807697">
    <ele>1.00</ele>
    <time>2025-01-05T15:59:13Z</time>
</wpt>
<wpt lat="36.07557623019245" lon="140.21093454472668">
    <ele>1.00</ele>
    <time>2025-01-05T15:59:14Z</time>
</wpt>
<wpt lat="36.07557623019245" lon="140.21089449137637">
    <ele>1.00</ele>
    <time>2025-01-05T15:59:15Z</time>
</wpt>
<wpt lat="36.07557623019245" lon="140.21085443802608">
    <ele>1.00</ele>
    <time>2025-01-05T15:59:16Z</time>
</wpt>
<wpt lat="36.07557623019245" lon="140.21081438467579">
    <ele>1.00</ele>
    <time>2025-01-05T15:59:17Z</time>
</wpt>
<wpt lat="36.07557623019245" lon="140.21077433132550">
    <ele>1.00</ele>
    <time>2025-01-05T15:59:18Z</time>
</wpt>
<wpt lat="36.07557623019245" lon="140.21075302294312">
    <ele>1.00</ele>
    <time>2025-01-05T15:59:18.532Z</time>
</wpt>
<wpt lat="36.07557278661481" lon="140.21073598061719">
    <ele>1.00</ele>
    <time>2025-01-05T15:59:19Z</time>
</wpt>
<wpt lat="36.07556542854290" lon="140.21069956539085">
    <ele>1.00</ele>
    <time>2025-01-05T15:59:20Z</time>
</wpt>
<wpt lat="36.07555807047100" lon="140.21066315016452">
    <ele>1.00</ele>
    <time>2025-01-05T15:59:21Z</time>
</wpt>
<wpt lat="36.07555071239910" lon="140.21062673493819">
    <ele>1.00</ele>
    <time>2025-01-05T15:59:22Z</time>
</wpt>
<wpt lat="36.07554335432720" lon="140.21059031971186">
    <ele>1.00</ele>
    <time>2025-01-05T15:59:23Z</time>
</wpt>
<wpt lat="36.07553599625530" lon="140.21055390448552">
    <ele>1.00</ele>
    <time>2025-01-05T15:59:24Z</time>
</wpt>
<wpt lat="36.07552863818340" lon="140.21051748925919">
    <ele>1.00</ele>
    <time>2025-01-05T15:59:25Z</time>
</wpt>
<wpt lat="36.07552420126604" lon="140.2104955308777">
    <ele>1.00</ele>
    <time>2025-01-05T15:59:25.603Z</time>
</wpt>
<wpt lat="36.07551616808352" lon="140.21048197758563">
    <ele>1.00</ele>
    <time>2025-01-05T15:59:26Z</time>
</wpt>
<wpt lat="36.07549593336682" lon="140.21044783831096">
    <ele>1.00</ele>
    <time>2025-01-05T15:59:27Z</time>
</wpt>
<wpt lat="36.07547569865013" lon="140.21041369903625">
    <ele>1.00</ele>
    <time>2025-01-05T15:59:28Z</time>
</wpt>
<wpt lat="36.07545546393344" lon="140.21037955976158">
    <ele>1.00</ele>
    <time>2025-01-05T15:59:29Z</time>
</wpt>
<wpt lat="36.07543522921674" lon="140.21034542048687">
    <ele>1.00</ele>
    <time>2025-01-05T15:59:30Z</time>
</wpt>
<wpt lat="36.07542881481155" lon="140.2103345983368">
    <ele>1.00</ele>
    <time>2025-01-05T15:59:30.317Z</time>
</wpt>
<wpt lat="36.07541625220301" lon="140.21031128368512">
    <ele>1.00</ele>
    <time>2025-01-05T15:59:31Z</time>
</wpt>
<wpt lat="36.07539785892550" lon="140.21027714803108">
    <ele>1.00</ele>
    <time>2025-01-05T15:59:32Z</time>
</wpt>
<wpt lat="36.07537946564799" lon="140.21024301237705">
    <ele>1.00</ele>
    <time>2025-01-05T15:59:33Z</time>
</wpt>
<wpt lat="36.07536107237048" lon="140.21020887672304">
    <ele>1.00</ele>
    <time>2025-01-05T15:59:34Z</time>
</wpt>
<wpt lat="36.07534267909297" lon="140.21017474106901">
    <ele>1.00</ele>
    <time>2025-01-05T15:59:35Z</time>
</wpt>
<wpt lat="36.07532428581546" lon="140.21014060541498">
    <ele>1.00</ele>
    <time>2025-01-05T15:59:36Z</time>
</wpt>
<wpt lat="36.07530589253795" lon="140.21010646976097">
    <ele>1.00</ele>
    <time>2025-01-05T15:59:37Z</time>
</wpt>
<wpt lat="36.07528749926043" lon="140.21007233410694">
    <ele>1.00</ele>
    <time>2025-01-05T15:59:38Z</time>
</wpt>
<wpt lat="36.07526910598293" lon="140.21003819845291">
    <ele>1.00</ele>
    <time>2025-01-05T15:59:39Z</time>
</wpt>
<wpt lat="36.0752553845979" lon="140.210012733255">
    <ele>1.00</ele>
    <time>2025-01-05T15:59:39.746Z</time>
</wpt>
<wpt lat="36.07525204886872" lon="140.21000412326839">
    <ele>1.00</ele>
    <time>2025-01-05T15:59:40Z</time>
</wpt>
<wpt lat="36.07523891607668" lon="140.20997022568329">
    <ele>1.00</ele>
    <time>2025-01-05T15:59:41Z</time>
</wpt>
<wpt lat="36.07522578328463" lon="140.20993632809819">
    <ele>1.00</ele>
    <time>2025-01-05T15:59:42Z</time>
</wpt>
<wpt lat="36.07521265049259" lon="140.20990243051307">
    <ele>1.00</ele>
    <time>2025-01-05T15:59:43Z</time>
</wpt>
<wpt lat="36.07519951770054" lon="140.20986853292797">
    <ele>1.00</ele>
    <time>2025-01-05T15:59:44Z</time>
</wpt>
<wpt lat="36.07518638490850" lon="140.20983463534287">
    <ele>1.00</ele>
    <time>2025-01-05T15:59:45Z</time>
</wpt>
<wpt lat="36.07517325211645" lon="140.20980073775775">
    <ele>1.00</ele>
    <time>2025-01-05T15:59:46Z</time>
</wpt>
<wpt lat="36.07516011932441" lon="140.20976684017265">
    <ele>1.00</ele>
    <time>2025-01-05T15:59:47Z</time>
</wpt>
<wpt lat="36.07514698653236" lon="140.20973294258755">
    <ele>1.00</ele>
    <time>2025-01-05T15:59:48Z</time>
</wpt>
<wpt lat="36.07513385374032" lon="140.20969904500242">
    <ele>1.00</ele>
    <time>2025-01-05T15:59:49Z</time>
</wpt>
<wpt lat="36.07512072094827" lon="140.20966514741733">
    <ele>1.00</ele>
    <time>2025-01-05T15:59:50Z</time>
</wpt>
<wpt lat="36.07510758815622" lon="140.20963124983223">
    <ele>1.00</ele>
    <time>2025-01-05T15:59:51Z</time>
</wpt>
<wpt lat="36.07509445536418" lon="140.20959735224710">
    <ele>1.00</ele>
    <time>2025-01-05T15:59:52Z</time>
</wpt>
<wpt lat="36.07508132257213" lon="140.20956345466200">
    <ele>1.00</ele>
    <time>2025-01-05T15:59:53Z</time>
</wpt>
<wpt lat="36.07506818978009" lon="140.20952955707691">
    <ele>1.00</ele>
    <time>2025-01-05T15:59:54Z</time>
</wpt>
<wpt lat="36.07505505698804" lon="140.20949565949181">
    <ele>1.00</ele>
    <time>2025-01-05T15:59:55Z</time>
</wpt>
<wpt lat="36.075054177090976" lon="140.2094933883536">
    <ele>1.00</ele>
    <time>2025-01-05T15:59:55.067Z</time>
</wpt>
<wpt lat="36.07502867647541" lon="140.20947882658265">
    <ele>1.00</ele>
    <time>2025-01-05T15:59:56Z</time>
</wpt>
<wpt lat="36.07500134462593" lon="140.20946321911111">
    <ele>1.00</ele>
    <time>2025-01-05T15:59:57Z</time>
</wpt>
<wpt lat="36.07497401277645" lon="140.20944761163958">
    <ele>1.00</ele>
    <time>2025-01-05T15:59:58Z</time>
</wpt>
<wpt lat="36.07494668092697" lon="140.20943200416804">
    <ele>1.00</ele>
    <time>2025-01-05T15:59:59Z</time>
</wpt>
<wpt lat="36.07491934907750" lon="140.20941639669650">
    <ele>1.00</ele>
    <time>2025-01-05T16:00:00Z</time>
</wpt>
<wpt lat="36.07489201722802" lon="140.20940078922496">
    <ele>1.00</ele>
    <time>2025-01-05T16:00:01Z</time>
</wpt>
<wpt lat="36.07486468537854" lon="140.20938518175342">
    <ele>1.00</ele>
    <time>2025-01-05T16:00:02Z</time>
</wpt>
<wpt lat="36.07483735352906" lon="140.20936957428188">
    <ele>1.00</ele>
    <time>2025-01-05T16:00:03Z</time>
</wpt>
<wpt lat="36.07482871666462" lon="140.20936464232088">
    <ele>1.00</ele>
    <time>2025-01-05T16:00:03.316Z</time>
</wpt>
<wpt lat="36.07480757997079" lon="140.20934969878002">
    <ele>1.00</ele>
    <time>2025-01-05T16:00:04Z</time>
</wpt>
<wpt lat="36.07477667837161" lon="140.20932785149802">
    <ele>1.00</ele>
    <time>2025-01-05T16:00:05Z</time>
</wpt>
<wpt lat="36.07474577677245" lon="140.20930600421605">
    <ele>1.00</ele>
    <time>2025-01-05T16:00:06Z</time>
</wpt>
<wpt lat="36.07471487517327" lon="140.20928415693405">
    <ele>1.00</ele>
    <time>2025-01-05T16:00:07Z</time>
</wpt>
<wpt lat="36.07468397357410" lon="140.20926230965208">
    <ele>1.00</ele>
    <time>2025-01-05T16:00:08Z</time>
</wpt>
<wpt lat="36.07465307197493" lon="140.20924046237010">
    <ele>1.00</ele>
    <time>2025-01-05T16:00:09Z</time>
</wpt>
<wpt lat="36.0746466135407" lon="140.20923589628816">
    <ele>1.00</ele>
    <time>2025-01-05T16:00:09.209Z</time>
</wpt>
<wpt lat="36.07463691440679" lon="140.20919989582441">
    <ele>1.00</ele>
    <time>2025-01-05T16:00:10Z</time>
</wpt>
<wpt lat="36.07462465254344" lon="140.20915438322800">
    <ele>1.00</ele>
    <time>2025-01-05T16:00:11Z</time>
</wpt>
<wpt lat="36.07461239068009" lon="140.20910887063158">
    <ele>1.00</ele>
    <time>2025-01-05T16:00:12Z</time>
</wpt>
<wpt lat="36.074603255591896" lon="140.20907496374727">
    <ele>1.00</ele>
    <time>2025-01-05T16:00:12.745Z</time>
</wpt>
<wpt lat="36.07460137926035" lon="140.20906451712921">
    <ele>1.00</ele>
    <time>2025-01-05T16:00:13Z</time>
</wpt>
<wpt lat="36.07459402109742" lon="140.20902354999959">
    <ele>1.00</ele>
    <time>2025-01-05T16:00:14Z</time>
</wpt>
<wpt lat="36.07458666293448" lon="140.20898258286996">
    <ele>1.00</ele>
    <time>2025-01-05T16:00:15Z</time>
</wpt>
<wpt lat="36.07457930477155" lon="140.20894161574032">
    <ele>1.00</ele>
    <time>2025-01-05T16:00:16Z</time>
</wpt>
<wpt lat="36.07457194660861" lon="140.20890064861069">
    <ele>1.00</ele>
    <time>2025-01-05T16:00:17Z</time>
</wpt>
<wpt lat="36.07456458844568" lon="140.20885968148107">
    <ele>1.00</ele>
    <time>2025-01-05T16:00:18Z</time>
</wpt>
<wpt lat="36.07455723028275" lon="140.20881871435145">
    <ele>1.00</ele>
    <time>2025-01-05T16:00:19Z</time>
</wpt>
<wpt lat="36.074551226021796" lon="140.20878528517366">
    <ele>1.00</ele>
    <time>2025-01-05T16:00:19.816Z</time>
</wpt>
<wpt lat="36.07455393382546" lon="140.20877858477201">
    <ele>1.00</ele>
    <time>2025-01-05T16:00:20Z</time>
</wpt>
<wpt lat="36.07456865014970" lon="140.20874216954567">
    <ele>1.00</ele>
    <time>2025-01-05T16:00:21Z</time>
</wpt>
<wpt lat="36.07458336647394" lon="140.20870575431934">
    <ele>1.00</ele>
    <time>2025-01-05T16:00:22Z</time>
</wpt>
<wpt lat="36.07459808279818" lon="140.20866933909301">
    <ele>1.00</ele>
    <time>2025-01-05T16:00:23Z</time>
</wpt>
<wpt lat="36.07461279912242" lon="140.20863292386667">
    <ele>1.00</ele>
    <time>2025-01-05T16:00:24Z</time>
</wpt>
<wpt lat="36.07462059877427" lon="140.2086136237967">
    <ele>1.00</ele>
    <time>2025-01-05T16:00:24.530Z</time>
</wpt>
<wpt lat="36.07462059877427" lon="140.20859222985123">
    <ele>1.00</ele>
    <time>2025-01-05T16:00:25Z</time>
</wpt>
<wpt lat="36.07462059877427" lon="140.20854671081833">
    <ele>1.00</ele>
    <time>2025-01-05T16:00:26Z</time>
</wpt>
<wpt lat="36.07462059877427" lon="140.20850119178539">
    <ele>1.00</ele>
    <time>2025-01-05T16:00:27Z</time>
</wpt>
<wpt lat="36.07462059877427" lon="140.20845567275248">
    <ele>1.00</ele>
    <time>2025-01-05T16:00:28Z</time>
</wpt>
<wpt lat="36.07462059877427" lon="140.20841015371954">
    <ele>1.00</ele>
    <time>2025-01-05T16:00:29Z</time>
</wpt>
<wpt lat="36.07462059877427" lon="140.20839904707552">
    <ele>1.00</ele>
    <time>2025-01-05T16:00:29.244Z</time>
</wpt>
<wpt lat="36.07461874451803" lon="140.20836807592551">
    <ele>1.00</ele>
    <time>2025-01-05T16:00:30Z</time>
</wpt>
<wpt lat="36.07461629179813" lon="140.20832710879588">
    <ele>1.00</ele>
    <time>2025-01-05T16:00:31Z</time>
</wpt>
<wpt lat="36.07461383907824" lon="140.20828614166626">
    <ele>1.00</ele>
    <time>2025-01-05T16:00:32Z</time>
</wpt>
<wpt lat="36.07461138635834" lon="140.20824517453664">
    <ele>1.00</ele>
    <time>2025-01-05T16:00:33Z</time>
</wpt>
<wpt lat="36.07460893363845" lon="140.20820420740699">
    <ele>1.00</ele>
    <time>2025-01-05T16:00:34Z</time>
</wpt>
<wpt lat="36.07460648091855" lon="140.20816324027737">
    <ele>1.00</ele>
    <time>2025-01-05T16:00:35Z</time>
</wpt>
<wpt lat="36.07460402819866" lon="140.20812227314775">
    <ele>1.00</ele>
    <time>2025-01-05T16:00:36Z</time>
</wpt>
<wpt lat="36.074603255591896" lon="140.2081093685019">
    <ele>1.00</ele>
    <time>2025-01-05T16:00:36.315Z</time>
</wpt>
<wpt lat="36.07460745587402" lon="140.20808338472062">
    <ele>1.00</ele>
    <time>2025-01-05T16:00:37Z</time>
</wpt>
<wpt lat="36.07461358767275" lon="140.20804545219318">
    <ele>1.00</ele>
    <time>2025-01-05T16:00:38Z</time>
</wpt>
<wpt lat="36.07461971947148" lon="140.20800751966576">
    <ele>1.00</ele>
    <time>2025-01-05T16:00:39Z</time>
</wpt>
<wpt lat="36.07462585127021" lon="140.20796958713831">
    <ele>1.00</ele>
    <time>2025-01-05T16:00:40Z</time>
</wpt>
<wpt lat="36.07463198306893" lon="140.20793165461089">
    <ele>1.00</ele>
    <time>2025-01-05T16:00:41Z</time>
</wpt>
<wpt lat="36.07463811486766" lon="140.20789372208344">
    <ele>1.00</ele>
    <time>2025-01-05T16:00:42Z</time>
</wpt>
<wpt lat="36.07464424666640" lon="140.20785578955602">
    <ele>1.00</ele>
    <time>2025-01-05T16:00:43Z</time>
</wpt>
<wpt lat="36.0746466135407" lon="140.20784114760042">
    <ele>1.00</ele>
    <time>2025-01-05T16:00:43.386Z</time>
</wpt>
<wpt lat="36.07464643315830" lon="140.20781499063804">
    <ele>1.00</ele>
    <time>2025-01-05T16:00:44Z</time>
</wpt>
<wpt lat="36.07464613937589" lon="140.20777238972215">
    <ele>1.00</ele>
    <time>2025-01-05T16:00:45Z</time>
</wpt>
<wpt lat="36.07464584559347" lon="140.20772978880623">
    <ele>1.00</ele>
    <time>2025-01-05T16:00:46Z</time>
</wpt>
<wpt lat="36.07464555181106" lon="140.20768718789031">
    <ele>1.00</ele>
    <time>2025-01-05T16:00:47Z</time>
</wpt>
<wpt lat="36.07464525802865" lon="140.20764458697442">
    <ele>1.00</ele>
    <time>2025-01-05T16:00:48Z</time>
</wpt>
<wpt lat="36.07464496424623" lon="140.20760198605851">
    <ele>1.00</ele>
    <time>2025-01-05T16:00:49Z</time>
</wpt>
<wpt lat="36.07464488228094" lon="140.20759010040297">
    <ele>1.00</ele>
    <time>2025-01-05T16:00:49.279Z</time>
</wpt>
<wpt lat="36.07463515601837" lon="140.20756493899887">
    <ele>1.00</ele>
    <time>2025-01-05T16:00:50Z</time>
</wpt>
<wpt lat="36.07462166605641" lon="140.20753004107362">
    <ele>1.00</ele>
    <time>2025-01-05T16:00:51Z</time>
</wpt>
<wpt lat="36.07460817609445" lon="140.20749514314838">
    <ele>1.00</ele>
    <time>2025-01-05T16:00:52Z</time>
</wpt>
<wpt lat="36.07459468613249" lon="140.20746024522316">
    <ele>1.00</ele>
    <time>2025-01-05T16:00:53Z</time>
</wpt>
<wpt lat="36.07458119617053" lon="140.20742534729791">
    <ele>1.00</ele>
    <time>2025-01-05T16:00:54Z</time>
</wpt>
<wpt lat="36.07456770620858" lon="140.20739044937267">
    <ele>1.00</ele>
    <time>2025-01-05T16:00:55Z</time>
</wpt>
<wpt lat="36.07455421624661" lon="140.20735555144742">
    <ele>1.00</ele>
    <time>2025-01-05T16:00:56Z</time>
</wpt>
<wpt lat="36.07454949475993" lon="140.2073433371736">
    <ele>1.00</ele>
    <time>2025-01-05T16:00:56.350Z</time>
</wpt>
<wpt lat="36.07453514754269" lon="140.20732203607366">
    <ele>1.00</ele>
    <time>2025-01-05T16:00:57Z</time>
</wpt>
<wpt lat="36.07451307490079" lon="140.20728926515071">
    <ele>1.00</ele>
    <time>2025-01-05T16:00:58Z</time>
</wpt>
<wpt lat="36.07449100225889" lon="140.20725649422772">
    <ele>1.00</ele>
    <time>2025-01-05T16:00:59Z</time>
</wpt>
<wpt lat="36.07446892961698" lon="140.20722372330476">
    <ele>1.00</ele>
    <time>2025-01-05T16:01:00Z</time>
</wpt>
<wpt lat="36.07444685697508" lon="140.20719095238178">
    <ele>1.00</ele>
    <time>2025-01-05T16:01:01Z</time>
</wpt>
<wpt lat="36.07442478433317" lon="140.20715818145879">
    <ele>1.00</ele>
    <time>2025-01-05T16:01:02Z</time>
</wpt>
<wpt lat="36.074419420681195" lon="140.20715021812453">
    <ele>1.00</ele>
    <time>2025-01-05T16:01:02.243Z</time>
</wpt>
<wpt lat="36.07439528680139" lon="140.20713184317228">
    <ele>1.00</ele>
    <time>2025-01-05T16:01:03Z</time>
</wpt>
<wpt lat="36.07436340585052" lon="140.20710756978752">
    <ele>1.00</ele>
    <time>2025-01-05T16:01:04Z</time>
</wpt>
<wpt lat="36.07433152489966" lon="140.20708329640277">
    <ele>1.00</ele>
    <time>2025-01-05T16:01:05Z</time>
</wpt>
<wpt lat="36.07430668963893" lon="140.20706438743605">
    <ele>1.00</ele>
    <time>2025-01-05T16:01:05.779Z</time>
</wpt>
<wpt lat="36.07429909981489" lon="140.20706036298438">
    <ele>1.00</ele>
    <time>2025-01-05T16:01:06Z</time>
</wpt>
<wpt lat="36.07426475671967" lon="140.20704215279588">
    <ele>1.00</ele>
    <time>2025-01-05T16:01:07Z</time>
</wpt>
<wpt lat="36.07423041362446" lon="140.20702394260738">
    <ele>1.00</ele>
    <time>2025-01-05T16:01:08Z</time>
</wpt>
<wpt lat="36.07419607052923" lon="140.20700573241888">
    <ele>1.00</ele>
    <time>2025-01-05T16:01:09Z</time>
</wpt>
<wpt lat="36.07418528679734" lon="140.2070000144197">
    <ele>1.00</ele>
    <time>2025-01-05T16:01:09.314Z</time>
</wpt>
<wpt lat="36.07417519219847" lon="140.20697628463026">
    <ele>1.00</ele>
    <time>2025-01-05T16:01:10Z</time>
</wpt>
<wpt lat="36.07416047703979" lon="140.20694169310045">
    <ele>1.00</ele>
    <time>2025-01-05T16:01:11Z</time>
</wpt>
<wpt lat="36.07414576188110" lon="140.20690710157064">
    <ele>1.00</ele>
    <time>2025-01-05T16:01:12Z</time>
</wpt>
<wpt lat="36.07413104672241" lon="140.20687251004082">
    <ele>1.00</ele>
    <time>2025-01-05T16:01:13Z</time>
</wpt>
<wpt lat="36.07411633156372" lon="140.20683791851104">
    <ele>1.00</ele>
    <time>2025-01-05T16:01:14Z</time>
</wpt>
<wpt lat="36.07410161640503" lon="140.20680332698123">
    <ele>1.00</ele>
    <time>2025-01-05T16:01:15Z</time>
</wpt>
<wpt lat="36.074098570367184" lon="140.20679616653456">
    <ele>1.00</ele>
    <time>2025-01-05T16:01:15.207Z</time>
</wpt>
<wpt lat="36.07409857036718" lon="140.20675765805595">
    <ele>1.00</ele>
    <time>2025-01-05T16:01:16Z</time>
</wpt>
<wpt lat="36.07409857036718" lon="140.20670909755327">
    <ele>1.00</ele>
    <time>2025-01-05T16:01:17Z</time>
</wpt>
<wpt lat="36.07409857036718" lon="140.20666053705060">
    <ele>1.00</ele>
    <time>2025-01-05T16:01:18Z</time>
</wpt>
<wpt lat="36.074098570367184" lon="140.2066245051576">
    <ele>1.00</ele>
    <time>2025-01-05T16:01:18.742Z</time>
</wpt>
<wpt lat="36.07410141738868" lon="140.20661452495082">
    <ele>1.00</ele>
    <time>2025-01-05T16:01:19Z</time>
</wpt>
<wpt lat="36.07411245235571" lon="140.20657584197883">
    <ele>1.00</ele>
    <time>2025-01-05T16:01:20Z</time>
</wpt>
<wpt lat="36.07412348732274" lon="140.20653715900681">
    <ele>1.00</ele>
    <time>2025-01-05T16:01:21Z</time>
</wpt>
<wpt lat="36.07413452228977" lon="140.20649847603480">
    <ele>1.00</ele>
    <time>2025-01-05T16:01:22Z</time>
</wpt>
<wpt lat="36.07414555725681" lon="140.20645979306281">
    <ele>1.00</ele>
    <time>2025-01-05T16:01:23Z</time>
</wpt>
<wpt lat="36.07415060023674" lon="140.2064421149446">
    <ele>1.00</ele>
    <time>2025-01-05T16:01:23.457Z</time>
</wpt>
<wpt lat="36.07414460697854" lon="140.20642234147670">
    <ele>1.00</ele>
    <time>2025-01-05T16:01:24Z</time>
</wpt>
<wpt lat="36.07413356967061" lon="140.20638592625036">
    <ele>1.00</ele>
    <time>2025-01-05T16:01:25Z</time>
</wpt>
<wpt lat="36.07412253236269" lon="140.20634951102403">
    <ele>1.00</ele>
    <time>2025-01-05T16:01:26Z</time>
</wpt>
<wpt lat="36.07411149505477" lon="140.20631309579767">
    <ele>1.00</ele>
    <time>2025-01-05T16:01:27Z</time>
</wpt>
<wpt lat="36.07410045774684" lon="140.20627668057134">
    <ele>1.00</ele>
    <time>2025-01-05T16:01:28Z</time>
</wpt>
<wpt lat="36.074098570367184" lon="140.20627045356764">
    <ele>1.00</ele>
    <time>2025-01-05T16:01:28.171Z</time>
</wpt>
<wpt lat="36.07406807057937" lon="140.20625158592850">
    <ele>1.00</ele>
    <time>2025-01-05T16:01:29Z</time>
</wpt>
<wpt lat="36.07403127952048" lon="140.20622882641203">
    <ele>1.00</ele>
    <time>2025-01-05T16:01:30Z</time>
</wpt>
<wpt lat="36.074011853841384" lon="140.20621680938734">
    <ele>1.00</ele>
    <time>2025-01-05T16:01:30.528Z</time>
</wpt>
<wpt lat="36.07399795955573" lon="140.20622110699182">
    <ele>1.00</ele>
    <time>2025-01-05T16:01:31Z</time>
</wpt>
<wpt lat="36.07396852250987" lon="140.20623021208607">
    <ele>1.00</ele>
    <time>2025-01-05T16:01:32Z</time>
</wpt>
<wpt lat="36.07393908546400" lon="140.20623931718032">
    <ele>1.00</ele>
    <time>2025-01-05T16:01:33Z</time>
</wpt>
<wpt lat="36.07390964841813" lon="140.20624842227457">
    <ele>1.00</ele>
    <time>2025-01-05T16:01:34Z</time>
</wpt>
<wpt lat="36.07390779388424" lon="140.20624899589552">
    <ele>1.00</ele>
    <time>2025-01-05T16:01:34.063Z</time>
</wpt>
<wpt lat="36.07388710990533" lon="140.20629164722936">
    <ele>1.01</ele>
    <time>2025-01-05T16:01:35Z</time>
</wpt>
<wpt lat="36.07386503522133" lon="140.20633716626230">
    <ele>1.02</ele>
    <time>2025-01-05T16:01:36Z</time>
</wpt>
<wpt lat="36.07385576385405" lon="140.20635628425612">
    <ele>1.02</ele>
    <time>2025-01-05T16:01:36.420Z</time>
</wpt>
<wpt lat="36.07385256370214" lon="140.20637740060789">
    <ele>1.04</ele>
    <time>2025-01-05T16:01:37Z</time>
</wpt>
<wpt lat="36.07384704619884" lon="140.20641380811097">
    <ele>1.07</ele>
    <time>2025-01-05T16:01:38Z</time>
</wpt>
<wpt lat="36.07384152869555" lon="140.20645021561401">
    <ele>1.10</ele>
    <time>2025-01-05T16:01:39Z</time>
</wpt>
<wpt lat="36.07383601119226" lon="140.20648662311709">
    <ele>1.13</ele>
    <time>2025-01-05T16:01:40Z</time>
</wpt>
<wpt lat="36.07383049368897" lon="140.20652303062016">
    <ele>1.17</ele>
    <time>2025-01-05T16:01:41Z</time>
</wpt>
<wpt lat="36.07382974882602" lon="140.20652794563307">
    <ele>1.17</ele>
    <time>2025-01-05T16:01:41.135Z</time>
</wpt>
<wpt lat="36.07383738731737" lon="140.20656102256908">
    <ele>1.15</ele>
    <time>2025-01-05T16:01:42Z</time>
</wpt>
<wpt lat="36.07384621794321" lon="140.20659926180147">
    <ele>1.13</ele>
    <time>2025-01-05T16:01:43Z</time>
</wpt>
<wpt lat="36.07385504856904" lon="140.20663750103387">
    <ele>1.10</ele>
    <time>2025-01-05T16:01:44Z</time>
</wpt>
<wpt lat="36.07386387919487" lon="140.20667574026626">
    <ele>1.08</ele>
    <time>2025-01-05T16:01:45Z</time>
</wpt>
<wpt lat="36.07387270982071" lon="140.20671397949866">
    <ele>1.05</ele>
    <time>2025-01-05T16:01:46Z</time>
</wpt>
<wpt lat="36.07388154044654" lon="140.20675221873105">
    <ele>1.03</ele>
    <time>2025-01-05T16:01:47Z</time>
</wpt>
<wpt lat="36.07388177887344" lon="140.20675325119032">
    <ele>1.03</ele>
    <time>2025-01-05T16:01:47.027Z</time>
</wpt>
<wpt lat="36.07390146764008" lon="140.20678425420365">
    <ele>1.02</ele>
    <time>2025-01-05T16:01:48Z</time>
</wpt>
<wpt lat="36.07392170275481" lon="140.20681611752670">
    <ele>1.02</ele>
    <time>2025-01-05T16:01:49Z</time>
</wpt>
<wpt lat="36.07394193786955" lon="140.20684798084974">
    <ele>1.01</ele>
    <time>2025-01-05T16:01:50Z</time>
</wpt>
<wpt lat="36.07396217298428" lon="140.20687984417279">
    <ele>1.00</ele>
    <time>2025-01-05T16:01:51Z</time>
</wpt>
<wpt lat="36.0739771672043" lon="140.20690345489515">
    <ele>1.00</ele>
    <time>2025-01-05T16:01:51.741Z</time>
</wpt>
<wpt lat="36.07398240698112" lon="140.20691052705263">
    <ele>1.00</ele>
    <time>2025-01-05T16:01:52Z</time>
</wpt>
<wpt lat="36.07400263777968" lon="140.20693783267993">
    <ele>1.00</ele>
    <time>2025-01-05T16:01:53Z</time>
</wpt>
<wpt lat="36.07402286857824" lon="140.20696513830723">
    <ele>1.00</ele>
    <time>2025-01-05T16:01:54Z</time>
</wpt>
<wpt lat="36.07404309937679" lon="140.20699244393452">
    <ele>1.00</ele>
    <time>2025-01-05T16:01:55Z</time>
</wpt>
<wpt lat="36.07406333017535" lon="140.20701974956182">
    <ele>1.00</ele>
    <time>2025-01-05T16:01:56Z</time>
</wpt>
<wpt lat="36.07407255541949" lon="140.20703220092787">
    <ele>1.00</ele>
    <time>2025-01-05T16:01:56.456Z</time>
</wpt>
<wpt lat="36.07407255541949" lon="140.20705366467004">
    <ele>1.00</ele>
    <time>2025-01-05T16:01:57Z</time>
</wpt>
<wpt lat="36.07407255541949" lon="140.20709312007847">
    <ele>1.00</ele>
    <time>2025-01-05T16:01:58Z</time>
</wpt>
<wpt lat="36.07407255541949" lon="140.20713257548690">
    <ele>1.00</ele>
    <time>2025-01-05T16:01:59Z</time>
</wpt>
<wpt lat="36.07407255541949" lon="140.20717167579664">
    <ele>1.00</ele>
    <time>2025-01-05T16:01:59.991Z</time>
</wpt>
<wpt lat="36.07407251757955" lon="140.20717202692219">
    <ele>1.00</ele>
    <time>2025-01-05T16:02:00Z</time>
</wpt>
<wpt lat="36.07406831314194" lon="140.20721104087150">
    <ele>1.00</ele>
    <time>2025-01-05T16:02:01Z</time>
</wpt>
<wpt lat="36.07406410870432" lon="140.20725005482080">
    <ele>1.00</ele>
    <time>2025-01-05T16:02:02Z</time>
</wpt>
<wpt lat="36.07405990426670" lon="140.20728906877011">
    <ele>1.00</ele>
    <time>2025-01-05T16:02:03Z</time>
</wpt>
<wpt lat="36.07405569982908" lon="140.20732808271941">
    <ele>1.00</ele>
    <time>2025-01-05T16:02:04Z</time>
</wpt>
<wpt lat="36.07405149539147" lon="140.20736709666872">
    <ele>1.00</ele>
    <time>2025-01-05T16:02:05Z</time>
</wpt>
<wpt lat="36.07404729095385" lon="140.20740611061802">
    <ele>1.00</ele>
    <time>2025-01-05T16:02:06Z</time>
</wpt>
<wpt lat="36.07404308651623" lon="140.20744512456733">
    <ele>1.00</ele>
    <time>2025-01-05T16:02:07Z</time>
</wpt>
<wpt lat="36.07403888207862" lon="140.20748413851666">
    <ele>1.00</ele>
    <time>2025-01-05T16:02:08Z</time>
</wpt>
<wpt lat="36.07403786880915" lon="140.20749354087843">
    <ele>1.00</ele>
    <time>2025-01-05T16:02:08.241Z</time>
</wpt>
<wpt lat="36.07404121945466" lon="140.20752532321188">
    <ele>1.00</ele>
    <time>2025-01-05T16:02:09Z</time>
</wpt>
<wpt lat="36.07404563400738" lon="140.20756719716903">
    <ele>1.00</ele>
    <time>2025-01-05T16:02:10Z</time>
</wpt>
<wpt lat="36.07405004856010" lon="140.20760907112614">
    <ele>1.00</ele>
    <time>2025-01-05T16:02:11Z</time>
</wpt>
<wpt lat="36.07405446311282" lon="140.20765094508329">
    <ele>1.01</ele>
    <time>2025-01-05T16:02:12Z</time>
</wpt>
<wpt lat="36.07405887766554" lon="140.20769281904040">
    <ele>1.01</ele>
    <time>2025-01-05T16:02:13Z</time>
</wpt>
<wpt lat="36.07406329221826" lon="140.20773469299755">
    <ele>1.01</ele>
    <time>2025-01-05T16:02:14Z</time>
</wpt>
<wpt lat="36.07406388376832" lon="140.2077403041078">
    <ele>1.01</ele>
    <time>2025-01-05T16:02:14.134Z</time>
</wpt>
<wpt lat="36.07407742470335" lon="140.20777085420676">
    <ele>1.01</ele>
    <time>2025-01-05T16:02:15Z</time>
</wpt>
<wpt lat="36.07409306088701" lon="140.20780613145726">
    <ele>1.01</ele>
    <time>2025-01-05T16:02:16Z</time>
</wpt>
<wpt lat="36.07410869707066" lon="140.20784140870776">
    <ele>1.01</ele>
    <time>2025-01-05T16:02:17Z</time>
</wpt>
<wpt lat="36.07412433325430" lon="140.20787668595830">
    <ele>1.01</ele>
    <time>2025-01-05T16:02:18Z</time>
</wpt>
<wpt lat="36.07413996943795" lon="140.20791196320880">
    <ele>1.00</ele>
    <time>2025-01-05T16:02:19Z</time>
</wpt>
<wpt lat="36.07415560562160" lon="140.20794724045930">
    <ele>1.00</ele>
    <time>2025-01-05T16:02:20Z</time>
</wpt>
<wpt lat="36.07417124180525" lon="140.20798251770984">
    <ele>1.00</ele>
    <time>2025-01-05T16:02:21Z</time>
</wpt>
<wpt lat="36.07418687798889" lon="140.20801779496034">
    <ele>1.00</ele>
    <time>2025-01-05T16:02:22Z</time>
</wpt>
<wpt lat="36.07420251417255" lon="140.20805307221087">
    <ele>1.00</ele>
    <time>2025-01-05T16:02:23Z</time>
</wpt>
<wpt lat="36.074211301707756" lon="140.20807289802565">
    <ele>1.00</ele>
    <time>2025-01-05T16:02:23.562Z</time>
</wpt>
<wpt lat="36.07422004901369" lon="140.20808599890984">
    <ele>1.00</ele>
    <time>2025-01-05T16:02:24Z</time>
</wpt>
<wpt lat="36.07424002003179" lon="140.20811590960429">
    <ele>1.00</ele>
    <time>2025-01-05T16:02:25Z</time>
</wpt>
<wpt lat="36.07425999104991" lon="140.20814582029877">
    <ele>1.00</ele>
    <time>2025-01-05T16:02:26Z</time>
</wpt>
<wpt lat="36.07427996206801" lon="140.20817573099325">
    <ele>1.00</ele>
    <time>2025-01-05T16:02:27Z</time>
</wpt>
<wpt lat="36.07429993308612" lon="140.20820564168770">
    <ele>1.00</ele>
    <time>2025-01-05T16:02:28Z</time>
</wpt>
<wpt lat="36.07431990410423" lon="140.20823555238218">
    <ele>1.00</ele>
    <time>2025-01-05T16:02:29Z</time>
</wpt>
<wpt lat="36.07433987512234" lon="140.20826546307663">
    <ele>1.00</ele>
    <time>2025-01-05T16:02:30Z</time>
</wpt>
<wpt lat="36.07435984614045" lon="140.20829537377111">
    <ele>1.00</ele>
    <time>2025-01-05T16:02:31Z</time>
</wpt>
<wpt lat="36.07437606260715" lon="140.20831966125502">
    <ele>1.00</ele>
    <time>2025-01-05T16:02:31.812Z</time>
</wpt>
<wpt lat="36.07437910620754" lon="140.20832650789853">
    <ele>1.00</ele>
    <time>2025-01-05T16:02:32Z</time>
</wpt>
<wpt lat="36.07439529557131" lon="140.20836292621510">
    <ele>1.00</ele>
    <time>2025-01-05T16:02:33Z</time>
</wpt>
<wpt lat="36.07441148493508" lon="140.20839934453167">
    <ele>1.00</ele>
    <time>2025-01-05T16:02:34Z</time>
</wpt>
<wpt lat="36.07442767429885" lon="140.20843576284821">
    <ele>1.00</ele>
    <time>2025-01-05T16:02:35Z</time>
</wpt>
<wpt lat="36.07444386366262" lon="140.20847218116478">
    <ele>1.00</ele>
    <time>2025-01-05T16:02:36Z</time>
</wpt>
<wpt lat="36.07446005302640" lon="140.20850859948135">
    <ele>1.00</ele>
    <time>2025-01-05T16:02:37Z</time>
</wpt>
<wpt lat="36.07447145033849" lon="140.2085342379762">
    <ele>1.00</ele>
    <time>2025-01-05T16:02:37.704Z</time>
</wpt>
<wpt lat="36.07447449930542" lon="140.20854663266752">
    <ele>1.00</ele>
    <time>2025-01-05T16:02:38Z</time>
</wpt>
<wpt lat="36.07448479986937" lon="140.20858850662466">
    <ele>1.00</ele>
    <time>2025-01-05T16:02:39Z</time>
</wpt>
<wpt lat="36.07449510043332" lon="140.20863038058178">
    <ele>1.00</ele>
    <time>2025-01-05T16:02:40Z</time>
</wpt>
<wpt lat="36.07450540099727" lon="140.20867225453893">
    <ele>1.00</ele>
    <time>2025-01-05T16:02:41Z</time>
</wpt>
<wpt lat="36.07451570156123" lon="140.20871412849604">
    <ele>1.00</ele>
    <time>2025-01-05T16:02:42Z</time>
</wpt>
<wpt lat="36.07452600212518" lon="140.20875600245319">
    <ele>1.00</ele>
    <time>2025-01-05T16:02:43Z</time>
</wpt>
<wpt lat="36.074532151561854" lon="140.20878100120558">
    <ele>1.00</ele>
    <time>2025-01-05T16:02:43.597Z</time>
</wpt>
<wpt lat="36.07453088077808" lon="140.20879619973977">
    <ele>1.00</ele>
    <time>2025-01-05T16:02:44Z</time>
</wpt>
<wpt lat="36.07452772746848" lon="140.20883391322408">
    <ele>1.00</ele>
    <time>2025-01-05T16:02:45Z</time>
</wpt>
<wpt lat="36.07452457415886" lon="140.20887162670843">
    <ele>1.00</ele>
    <time>2025-01-05T16:02:46Z</time>
</wpt>
<wpt lat="36.07452142084926" lon="140.20890934019275">
    <ele>1.00</ele>
    <time>2025-01-05T16:02:47Z</time>
</wpt>
<wpt lat="36.07451826753965" lon="140.20894705367709">
    <ele>1.00</ele>
    <time>2025-01-05T16:02:48Z</time>
</wpt>
<wpt lat="36.07451511423005" lon="140.20898476716141">
    <ele>1.00</ele>
    <time>2025-01-05T16:02:49Z</time>
</wpt>
<wpt lat="36.07451196092044" lon="140.20902248064576">
    <ele>1.00</ele>
    <time>2025-01-05T16:02:50Z</time>
</wpt>
<wpt lat="36.07450880761083" lon="140.20906019413007">
    <ele>1.00</ele>
    <time>2025-01-05T16:02:51Z</time>
</wpt>
<wpt lat="36.07450613675759" lon="140.2090921374513">
    <ele>1.00</ele>
    <time>2025-01-05T16:02:51.847Z</time>
</wpt>
<wpt lat="36.07450641820755" lon="140.20909823131183">
    <ele>1.00</ele>
    <time>2025-01-05T16:02:52Z</time>
</wpt>
<wpt lat="36.07450825774974" lon="140.20913806046565">
    <ele>1.00</ele>
    <time>2025-01-05T16:02:53Z</time>
</wpt>
<wpt lat="36.07451009729193" lon="140.20917788961944">
    <ele>1.00</ele>
    <time>2025-01-05T16:02:54Z</time>
</wpt>
<wpt lat="36.07451193683413" lon="140.20921771877326">
    <ele>1.00</ele>
    <time>2025-01-05T16:02:55Z</time>
</wpt>
<wpt lat="36.07451377637632" lon="140.20925754792705">
    <ele>1.00</ele>
    <time>2025-01-05T16:02:56Z</time>
</wpt>
<wpt lat="36.07451561591851" lon="140.20929737708087">
    <ele>1.00</ele>
    <time>2025-01-05T16:02:57Z</time>
</wpt>
<wpt lat="36.07451745546071" lon="140.20933720623466">
    <ele>1.00</ele>
    <time>2025-01-05T16:02:58Z</time>
</wpt>
<wpt lat="36.07451929500290" lon="140.20937703538848">
    <ele>1.00</ele>
    <time>2025-01-05T16:02:59Z</time>
</wpt>
<wpt lat="36.07452113454509" lon="140.20941686454228">
    <ele>1.00</ele>
    <time>2025-01-05T16:03:00Z</time>
</wpt>
<wpt lat="36.07452297408729" lon="140.20945669369610">
    <ele>1.00</ele>
    <time>2025-01-05T16:03:01Z</time>
</wpt>
<wpt lat="36.07452347996139" lon="140.2094676467134">
    <ele>1.00</ele>
    <time>2025-01-05T16:03:01.275Z</time>
</wpt>
<wpt lat="36.07452481362919" lon="140.20949487278494">
    <ele>1.00</ele>
    <time>2025-01-05T16:03:02Z</time>
</wpt>
<wpt lat="36.07452665317098" lon="140.20953242598711">
    <ele>1.01</ele>
    <time>2025-01-05T16:03:03Z</time>
</wpt>
<wpt lat="36.07452849271277" lon="140.20956997918927">
    <ele>1.01</ele>
    <time>2025-01-05T16:03:04Z</time>
</wpt>
<wpt lat="36.07453033225455" lon="140.20960753239143">
    <ele>1.02</ele>
    <time>2025-01-05T16:03:05Z</time>
</wpt>
<wpt lat="36.07453217179634" lon="140.20964508559359">
    <ele>1.03</ele>
    <time>2025-01-05T16:03:06Z</time>
</wpt>
<wpt lat="36.07453401133813" lon="140.20968263879575">
    <ele>1.03</ele>
    <time>2025-01-05T16:03:07Z</time>
</wpt>
<wpt lat="36.07453585087993" lon="140.20972019199792">
    <ele>1.04</ele>
    <time>2025-01-05T16:03:08Z</time>
</wpt>
<wpt lat="36.07453769042171" lon="140.20975774520008">
    <ele>1.04</ele>
    <time>2025-01-05T16:03:09Z</time>
</wpt>
<wpt lat="36.07453952996350" lon="140.20979529840224">
    <ele>1.05</ele>
    <time>2025-01-05T16:03:10Z</time>
</wpt>
<wpt lat="36.07454082316138" lon="140.20982169830336">
    <ele>1.05</ele>
    <time>2025-01-05T16:03:10.703Z</time>
</wpt>
<wpt lat="36.07454456928969" lon="140.20983289920821">
    <ele>1.05</ele>
    <time>2025-01-05T16:03:11Z</time>
</wpt>
<wpt lat="36.07455718251629" lon="140.20987061269253">
    <ele>1.04</ele>
    <time>2025-01-05T16:03:12Z</time>
</wpt>
<wpt lat="36.07456979574291" lon="140.20990832617687">
    <ele>1.04</ele>
    <time>2025-01-05T16:03:13Z</time>
</wpt>
<wpt lat="36.07458240896953" lon="140.20994603966119">
    <ele>1.03</ele>
    <time>2025-01-05T16:03:14Z</time>
</wpt>
<wpt lat="36.07459502219614" lon="140.20998375314554">
    <ele>1.02</ele>
    <time>2025-01-05T16:03:15Z</time>
</wpt>
<wpt lat="36.07460763542275" lon="140.21002146662985">
    <ele>1.02</ele>
    <time>2025-01-05T16:03:16Z</time>
</wpt>
<wpt lat="36.07462024864937" lon="140.21005918011420">
    <ele>1.01</ele>
    <time>2025-01-05T16:03:17Z</time>
</wpt>
<wpt lat="36.07463286187598" lon="140.21009689359852">
    <ele>1.01</ele>
    <time>2025-01-05T16:03:18Z</time>
</wpt>
<wpt lat="36.07464488228094" lon="140.21013283454909">
    <ele>1.00</ele>
    <time>2025-01-05T16:03:18.953Z</time>
</wpt>
<wpt lat="36.07464601852025" lon="140.21013405698616">
    <ele>1.00</ele>
    <time>2025-01-05T16:03:19Z</time>
</wpt>
<wpt lat="36.07467019382461" lon="140.21016006628571">
    <ele>1.00</ele>
    <time>2025-01-05T16:03:20Z</time>
</wpt>
<wpt lat="36.07469436912897" lon="140.21018607558523">
    <ele>1.00</ele>
    <time>2025-01-05T16:03:21Z</time>
</wpt>
<wpt lat="36.07471854443333" lon="140.21021208488477">
    <ele>1.00</ele>
    <time>2025-01-05T16:03:22Z</time>
</wpt>
<wpt lat="36.07474271973769" lon="140.21023809418432">
    <ele>1.00</ele>
    <time>2025-01-05T16:03:23Z</time>
</wpt>
<wpt lat="36.07476689504206" lon="140.21026410348387">
    <ele>1.00</ele>
    <time>2025-01-05T16:03:24Z</time>
</wpt>
<wpt lat="36.07479107034642" lon="140.21029011278338">
    <ele>1.00</ele>
    <time>2025-01-05T16:03:25Z</time>
</wpt>
<wpt lat="36.07481524565078" lon="140.21031612208293">
    <ele>1.00</ele>
    <time>2025-01-05T16:03:26Z</time>
</wpt>
<wpt lat="36.07483942095514" lon="140.21034213138248">
    <ele>1.00</ele>
    <time>2025-01-05T16:03:27Z</time>
</wpt>
<wpt lat="36.07484432854193" lon="140.21034741127028">
    <ele>1.00</ele>
    <time>2025-01-05T16:03:27.203Z</time>
</wpt>
<wpt lat="36.07486309631290" lon="140.21037353412873">
    <ele>1.00</ele>
    <time>2025-01-05T16:03:28Z</time>
</wpt>
<wpt lat="36.07488664433169" lon="140.21040631061365">
    <ele>1.00</ele>
    <time>2025-01-05T16:03:29Z</time>
</wpt>
<wpt lat="36.07491019235048" lon="140.21043908709856">
    <ele>1.00</ele>
    <time>2025-01-05T16:03:30Z</time>
</wpt>
<wpt lat="36.07493374036927" lon="140.21047186358348">
    <ele>1.00</ele>
    <time>2025-01-05T16:03:31Z</time>
</wpt>
<wpt lat="36.07495728838806" lon="140.21050464006836">
    <ele>1.00</ele>
    <time>2025-01-05T16:03:32Z</time>
</wpt>
<wpt lat="36.07498083640684" lon="140.21053741655328">
    <ele>1.00</ele>
    <time>2025-01-05T16:03:33Z</time>
</wpt>
<wpt lat="36.07498307346863" lon="140.21054053031935">
    <ele>1.00</ele>
    <time>2025-01-05T16:03:33.095Z</time>
</wpt>
<wpt lat="36.07500526731575" lon="140.21056387069586">
    <ele>1.00</ele>
    <time>2025-01-05T16:03:34Z</time>
</wpt>
<wpt lat="36.07502979090373" lon="140.21058966116718">
    <ele>1.00</ele>
    <time>2025-01-05T16:03:35Z</time>
</wpt>
<wpt lat="36.07505431449171" lon="140.21061545163846">
    <ele>1.00</ele>
    <time>2025-01-05T16:03:36Z</time>
</wpt>
<wpt lat="36.07507883807969" lon="140.21064124210977">
    <ele>1.00</ele>
    <time>2025-01-05T16:03:37Z</time>
</wpt>
<wpt lat="36.07510336166767" lon="140.21066703258106">
    <ele>1.00</ele>
    <time>2025-01-05T16:03:38Z</time>
</wpt>
<wpt lat="36.07512788525565" lon="140.21069282305237">
    <ele>1.00</ele>
    <time>2025-01-05T16:03:39Z</time>
</wpt>
<wpt lat="36.07515240884363" lon="140.21071861352365">
    <ele>1.00</ele>
    <time>2025-01-05T16:03:40Z</time>
</wpt>
<wpt lat="36.07515650428282" lon="140.21072292053236">
    <ele>1.00</ele>
    <time>2025-01-05T16:03:40.167Z</time>
</wpt>
<wpt lat="36.07516365513541" lon="140.21075578223952">
    <ele>1.00</ele>
    <time>2025-01-05T16:03:41Z</time>
</wpt>
<wpt lat="36.07517223959228" lon="140.21079523206805">
    <ele>1.00</ele>
    <time>2025-01-05T16:03:42Z</time>
</wpt>
<wpt lat="36.07518082404916" lon="140.21083468189659">
    <ele>1.00</ele>
    <time>2025-01-05T16:03:43Z</time>
</wpt>
<wpt lat="36.07518940850604" lon="140.21087413172512">
    <ele>1.00</ele>
    <time>2025-01-05T16:03:44Z</time>
</wpt>
<wpt lat="36.07519799296292" lon="140.21091358155365">
    <ele>1.00</ele>
    <time>2025-01-05T16:03:45Z</time>
</wpt>
<wpt lat="36.07520657741981" lon="140.21095303138219">
    <ele>1.00</ele>
    <time>2025-01-05T16:03:46Z</time>
</wpt>
<wpt lat="36.07521516187668" lon="140.21099248121072">
    <ele>1.00</ele>
    <time>2025-01-05T16:03:47Z</time>
</wpt>
<wpt lat="36.07521720497742" lon="140.2110018702699">
    <ele>1.00</ele>
    <time>2025-01-05T16:03:47.238Z</time>
</wpt>
<wpt lat="36.07522841939753" lon="140.21102664713098">
    <ele>1.00</ele>
    <time>2025-01-05T16:03:48Z</time>
</wpt>
<wpt lat="36.07524313648428" lon="140.21105916269667">
    <ele>1.00</ele>
    <time>2025-01-05T16:03:49Z</time>
</wpt>
<wpt lat="36.07525785357104" lon="140.21109167826239">
    <ele>1.00</ele>
    <time>2025-01-05T16:03:50Z</time>
</wpt>
<wpt lat="36.07527257065779" lon="140.21112419382808">
    <ele>1.00</ele>
    <time>2025-01-05T16:03:51Z</time>
</wpt>
<wpt lat="36.07528728774455" lon="140.21115670939380">
    <ele>1.00</ele>
    <time>2025-01-05T16:03:52Z</time>
</wpt>
<wpt lat="36.07530200483131" lon="140.21118922495950">
    <ele>1.00</ele>
    <time>2025-01-05T16:03:53Z</time>
</wpt>
<wpt lat="36.07531672191806" lon="140.21122174052519">
    <ele>1.00</ele>
    <time>2025-01-05T16:03:54Z</time>
</wpt>
<wpt lat="36.07533143900482" lon="140.21125425609091">
    <ele>1.00</ele>
    <time>2025-01-05T16:03:55Z</time>
</wpt>
<wpt lat="36.07533860622607" lon="140.2112700911714">
    <ele>1.00</ele>
    <time>2025-01-05T16:03:55.487Z</time>
</wpt>
<wpt lat="36.07533483205754" lon="140.21129110433716">
    <ele>1.00</ele>
    <time>2025-01-05T16:03:56Z</time>
</wpt>
<wpt lat="36.07532747500385" lon="140.21133206567393">
    <ele>1.00</ele>
    <time>2025-01-05T16:03:57Z</time>
</wpt>
<wpt lat="36.07532011795018" lon="140.21137302701069">
    <ele>1.00</ele>
    <time>2025-01-05T16:03:58Z</time>
</wpt>
<wpt lat="36.07531276089650" lon="140.21141398834746">
    <ele>1.00</ele>
    <time>2025-01-05T16:03:59Z</time>
</wpt>
<wpt lat="36.07530540384283" lon="140.21145494968422">
    <ele>1.00</ele>
    <time>2025-01-05T16:04:00Z</time>
</wpt>
<wpt lat="36.07529804678914" lon="140.21149591102099">
    <ele>1.00</ele>
    <time>2025-01-05T16:04:01Z</time>
</wpt>
<wpt lat="36.07529068973547" lon="140.21153687235775">
    <ele>1.00</ele>
    <time>2025-01-05T16:04:02Z</time>
</wpt>
<wpt lat="36.075286577142464" lon="140.211559769745">
    <ele>1.00</ele>
    <time>2025-01-05T16:04:02.559Z</time>
</wpt>
<wpt lat="36.07528292660499" lon="140.21157532701250">
    <ele>1.00</ele>
    <time>2025-01-05T16:04:03Z</time>
</wpt>
<wpt lat="36.07527464874224" lon="140.21161060426300">
    <ele>1.00</ele>
    <time>2025-01-05T16:04:04Z</time>
</wpt>
<wpt lat="36.07526637087950" lon="140.21164588151350">
    <ele>1.00</ele>
    <time>2025-01-05T16:04:05Z</time>
</wpt>
<wpt lat="36.07525809301675" lon="140.21168115876404">
    <ele>1.00</ele>
    <time>2025-01-05T16:04:06Z</time>
</wpt>
<wpt lat="36.07524981515400" lon="140.21171643601454">
    <ele>1.00</ele>
    <time>2025-01-05T16:04:07Z</time>
</wpt>
<wpt lat="36.07524153729126" lon="140.21175171326504">
    <ele>1.00</ele>
    <time>2025-01-05T16:04:08Z</time>
</wpt>
<wpt lat="36.07523325942851" lon="140.21178699051558">
    <ele>1.00</ele>
    <time>2025-01-05T16:04:09Z</time>
</wpt>
<wpt lat="36.07522498156576" lon="140.21182226776608">
    <ele>1.00</ele>
    <time>2025-01-05T16:04:10Z</time>
</wpt>
<wpt lat="36.07521670370301" lon="140.21185754501658">
    <ele>1.00</ele>
    <time>2025-01-05T16:04:11Z</time>
</wpt>
<wpt lat="36.07520853345248" lon="140.21189236366286">
    <ele>1.00</ele>
    <time>2025-01-05T16:04:11.987Z</time>
</wpt>
<wpt lat="36.07520833018467" lon="140.21189282226712">
    <ele>1.00</ele>
    <time>2025-01-05T16:04:12Z</time>
</wpt>
<wpt lat="36.07519269419929" lon="140.21192809951762">
    <ele>1.00</ele>
    <time>2025-01-05T16:04:13Z</time>
</wpt>
<wpt lat="36.07517705821392" lon="140.21196337676815">
    <ele>1.00</ele>
    <time>2025-01-05T16:04:14Z</time>
</wpt>
<wpt lat="36.07516142222854" lon="140.21199865401866">
    <ele>1.00</ele>
    <time>2025-01-05T16:04:15Z</time>
</wpt>
<wpt lat="36.07514578624316" lon="140.21203393126916">
    <ele>1.00</ele>
    <time>2025-01-05T16:04:16Z</time>
</wpt>
<wpt lat="36.07513015025778" lon="140.21206920851969">
    <ele>1.00</ele>
    <time>2025-01-05T16:04:17Z</time>
</wpt>
<wpt lat="36.07511451427241" lon="140.21210448577020">
    <ele>1.00</ele>
    <time>2025-01-05T16:04:18Z</time>
</wpt>
<wpt lat="36.07509887828703" lon="140.21213976302070">
    <ele>1.00</ele>
    <time>2025-01-05T16:04:19Z</time>
</wpt>
<wpt lat="36.07508324230166" lon="140.21217504027123">
    <ele>1.00</ele>
    <time>2025-01-05T16:04:20Z</time>
</wpt>
<wpt lat="36.07506760631628" lon="140.21221031752174">
    <ele>1.00</ele>
    <time>2025-01-05T16:04:21Z</time>
</wpt>
<wpt lat="36.07506111738235" lon="140.2122249575807">
    <ele>1.00</ele>
    <time>2025-01-05T16:04:21.415Z</time>
</wpt>
<wpt lat="36.07506173227342" lon="140.21224740035504">
    <ele>1.00</ele>
    <time>2025-01-05T16:04:22Z</time>
</wpt>
<wpt lat="36.07506278336926" lon="140.21228576407185">
    <ele>1.00</ele>
    <time>2025-01-05T16:04:23Z</time>
</wpt>
<wpt lat="36.07506383446510" lon="140.21232412778869">
    <ele>1.00</ele>
    <time>2025-01-05T16:04:24Z</time>
</wpt>
<wpt lat="36.07506488556094" lon="140.21236249150550">
    <ele>1.00</ele>
    <time>2025-01-05T16:04:25Z</time>
</wpt>
<wpt lat="36.07506593665678" lon="140.21240085522231">
    <ele>1.00</ele>
    <time>2025-01-05T16:04:26Z</time>
</wpt>
<wpt lat="36.07506698775263" lon="140.21243921893912">
    <ele>1.00</ele>
    <time>2025-01-05T16:04:27Z</time>
</wpt>
<wpt lat="36.07506803884847" lon="140.21247758265596">
    <ele>1.00</ele>
    <time>2025-01-05T16:04:28Z</time>
</wpt>
<wpt lat="36.07506908994431" lon="140.21251594637278">
    <ele>1.00</ele>
    <time>2025-01-05T16:04:29Z</time>
</wpt>
<wpt lat="36.07507014104016" lon="140.21255431008959">
    <ele>1.00</ele>
    <time>2025-01-05T16:04:30Z</time>
</wpt>
<wpt lat="36.07507119213600" lon="140.21259267380643">
    <ele>1.00</ele>
    <time>2025-01-05T16:04:31Z</time>
</wpt>
<wpt lat="36.07507224323184" lon="140.21263103752324">
    <ele>1.00</ele>
    <time>2025-01-05T16:04:32Z</time>
</wpt>
<wpt lat="36.07507329432769" lon="140.21266940124005">
    <ele>1.00</ele>
    <time>2025-01-05T16:04:33Z</time>
</wpt>
<wpt lat="36.07507434542353" lon="140.21270776495686">
    <ele>1.00</ele>
    <time>2025-01-05T16:04:34Z</time>
</wpt>
<wpt lat="36.07507539651937" lon="140.21274612867370">
    <ele>1.00</ele>
    <time>2025-01-05T16:04:35Z</time>
</wpt>
<wpt lat="36.07507644761522" lon="140.21278449239051">
    <ele>1.00</ele>
    <time>2025-01-05T16:04:36Z</time>
</wpt>
<wpt lat="36.07507749871106" lon="140.21282285610732">
    <ele>1.00</ele>
    <time>2025-01-05T16:04:37Z</time>
</wpt>
<wpt lat="36.07507846046376" lon="140.21285795890822">
    <ele>1.00</ele>
    <time>2025-01-05T16:04:37.915Z</time>
</wpt>
<wpt lat="36.07507894689387" lon="140.21286114003289">
    <ele>1.00</ele>
    <time>2025-01-05T16:04:38Z</time>
</wpt>
<wpt lat="36.07508466960103" lon="140.21289856502904">
    <ele>1.00</ele>
    <time>2025-01-05T16:04:39Z</time>
</wpt>
<wpt lat="36.07509039230818" lon="140.21293599002519">
    <ele>1.00</ele>
    <time>2025-01-05T16:04:40Z</time>
</wpt>
<wpt lat="36.07509611501535" lon="140.21297341502134">
    <ele>1.00</ele>
    <time>2025-01-05T16:04:41Z</time>
</wpt>
<wpt lat="36.07510183772251" lon="140.21301084001752">
    <ele>1.00</ele>
    <time>2025-01-05T16:04:42Z</time>
</wpt>
<wpt lat="36.07510756042967" lon="140.21304826501367">
    <ele>1.00</ele>
    <time>2025-01-05T16:04:43Z</time>
</wpt>
<wpt lat="36.07511328313683" lon="140.21308569000982">
    <ele>1.00</ele>
    <time>2025-01-05T16:04:44Z</time>
</wpt>
<wpt lat="36.07511900584399" lon="140.21312311500597">
    <ele>1.00</ele>
    <time>2025-01-05T16:04:45Z</time>
</wpt>
<wpt lat="36.07512472855115" lon="140.21316054000212">
    <ele>1.00</ele>
    <time>2025-01-05T16:04:46Z</time>
</wpt>
<wpt lat="36.07513045125831" lon="140.21319796499827">
    <ele>1.00</ele>
    <time>2025-01-05T16:04:47Z</time>
</wpt>
<wpt lat="36.07513617396547" lon="140.21323538999442">
    <ele>1.00</ele>
    <time>2025-01-05T16:04:48Z</time>
</wpt>
<wpt lat="36.07513916121861" lon="140.21325492584242">
    <ele>1.00</ele>
    <time>2025-01-05T16:04:48.522Z</time>
</wpt>
<wpt lat="36.07514306918847" lon="140.21327184880732">
    <ele>1.00</ele>
    <time>2025-01-05T16:04:49Z</time>
</wpt>
<wpt lat="36.07515124485763" lon="140.21330725249959">
    <ele>1.00</ele>
    <time>2025-01-05T16:04:50Z</time>
</wpt>
<wpt lat="36.07515942052679" lon="140.21334265619188">
    <ele>1.00</ele>
    <time>2025-01-05T16:04:51Z</time>
</wpt>
<wpt lat="36.07516759619596" lon="140.21337805988415">
    <ele>1.00</ele>
    <time>2025-01-05T16:04:52Z</time>
</wpt>
<wpt lat="36.07517577186512" lon="140.21341346357642">
    <ele>1.00</ele>
    <time>2025-01-05T16:04:53Z</time>
</wpt>
<wpt lat="36.07518394753428" lon="140.21344886726868">
    <ele>1.00</ele>
    <time>2025-01-05T16:04:54Z</time>
</wpt>
<wpt lat="36.07519212320344" lon="140.21348427096095">
    <ele>1.00</ele>
    <time>2025-01-05T16:04:55Z</time>
</wpt>
<wpt lat="36.07520029887261" lon="140.21351967465324">
    <ele>1.00</ele>
    <time>2025-01-05T16:04:56Z</time>
</wpt>
<wpt lat="36.07520847454177" lon="140.21355507834551">
    <ele>1.00</ele>
    <time>2025-01-05T16:04:57Z</time>
</wpt>
<wpt lat="36.07521665021093" lon="140.21359048203777">
    <ele>1.00</ele>
    <time>2025-01-05T16:04:58Z</time>
</wpt>
<wpt lat="36.07522482588010" lon="140.21362588573004">
    <ele>1.00</ele>
    <time>2025-01-05T16:04:59Z</time>
</wpt>
<wpt lat="36.07523300154926" lon="140.21366128942233">
    <ele>1.00</ele>
    <time>2025-01-05T16:05:00Z</time>
</wpt>
<wpt lat="36.07524117721842" lon="140.21369669311460">
    <ele>1.00</ele>
    <time>2025-01-05T16:05:01Z</time>
</wpt>
<wpt lat="36.07524935288759" lon="140.21373209680687">
    <ele>1.00</ele>
    <time>2025-01-05T16:05:02Z</time>
</wpt>
<wpt lat="36.07525752855675" lon="140.21376750049913">
    <ele>1.00</ele>
    <time>2025-01-05T16:05:03Z</time>
</wpt>
<wpt lat="36.07526570422591" lon="140.21380290419140">
    <ele>1.00</ele>
    <time>2025-01-05T16:05:04Z</time>
</wpt>
<wpt lat="36.07527387989508" lon="140.21383830788369">
    <ele>1.00</ele>
    <time>2025-01-05T16:05:05Z</time>
</wpt>
<wpt lat="36.07528205556424" lon="140.21387371157596">
    <ele>1.00</ele>
    <time>2025-01-05T16:05:06Z</time>
</wpt>
<wpt lat="36.07529023123340" lon="140.21390911526822">
    <ele>1.00</ele>
    <time>2025-01-05T16:05:07Z</time>
</wpt>
<wpt lat="36.07529840690257" lon="140.21394451896049">
    <ele>1.00</ele>
    <time>2025-01-05T16:05:08Z</time>
</wpt>
<wpt lat="36.07530658257173" lon="140.21397992265278">
    <ele>1.00</ele>
    <time>2025-01-05T16:05:09Z</time>
</wpt>
<wpt lat="36.075312591688565" lon="140.2140059443666">
    <ele>1.00</ele>
    <time>2025-01-05T16:05:09.735Z</time>
</wpt>
<wpt lat="36.07531312345750" lon="140.21401603265042">
    <ele>1.00</ele>
    <time>2025-01-05T16:05:10Z</time>
</wpt>
<wpt lat="36.07531513013272" lon="140.21405410164601">
    <ele>1.00</ele>
    <time>2025-01-05T16:05:11Z</time>
</wpt>
<wpt lat="36.07531713680793" lon="140.21409217064158">
    <ele>1.00</ele>
    <time>2025-01-05T16:05:12Z</time>
</wpt>
<wpt lat="36.07531914348315" lon="140.21413023963717">
    <ele>1.00</ele>
    <time>2025-01-05T16:05:13Z</time>
</wpt>
<wpt lat="36.07532115015836" lon="140.21416830863276">
    <ele>1.00</ele>
    <time>2025-01-05T16:05:14Z</time>
</wpt>
<wpt lat="36.07532315683358" lon="140.21420637762833">
    <ele>1.00</ele>
    <time>2025-01-05T16:05:15Z</time>
</wpt>
<wpt lat="36.07532516350879" lon="140.21424444662392">
    <ele>1.00</ele>
    <time>2025-01-05T16:05:16Z</time>
</wpt>
<wpt lat="36.07532717018401" lon="140.21428251561952">
    <ele>1.00</ele>
    <time>2025-01-05T16:05:17Z</time>
</wpt>
<wpt lat="36.07532917685923" lon="140.21432058461508">
    <ele>1.00</ele>
    <time>2025-01-05T16:05:18Z</time>
</wpt>
<wpt lat="36.07533118353444" lon="140.21435865361067">
    <ele>1.00</ele>
    <time>2025-01-05T16:05:19Z</time>
</wpt>
<wpt lat="36.07533319020966" lon="140.21439672260624">
    <ele>1.00</ele>
    <time>2025-01-05T16:05:20Z</time>
</wpt>
<wpt lat="36.07533519688488" lon="140.21443479160183">
    <ele>1.00</ele>
    <time>2025-01-05T16:05:21Z</time>
</wpt>
<wpt lat="36.07533720356010" lon="140.21447286059743">
    <ele>1.00</ele>
    <time>2025-01-05T16:05:22Z</time>
</wpt>
<wpt lat="36.07533860622607" lon="140.21449947082533">
    <ele>1.00</ele>
    <time>2025-01-05T16:05:22.699Z</time>
</wpt>
<wpt lat="36.07533528404437" lon="140.21450997510084">
    <ele>1.00</ele>
    <time>2025-01-05T16:05:23Z</time>
</wpt>
<wpt lat="36.07532424689587" lon="140.21454487302606">
    <ele>1.00</ele>
    <time>2025-01-05T16:05:24Z</time>
</wpt>
<wpt lat="36.07531320974736" lon="140.21457977095130">
    <ele>1.00</ele>
    <time>2025-01-05T16:05:25Z</time>
</wpt>
<wpt lat="36.07530217259886" lon="140.21461466887655">
    <ele>1.00</ele>
    <time>2025-01-05T16:05:26Z</time>
</wpt>
<wpt lat="36.07529113545036" lon="140.21464956680180">
    <ele>1.00</ele>
    <time>2025-01-05T16:05:27Z</time>
</wpt>
<wpt lat="36.07528009830186" lon="140.21468446472701">
    <ele>1.00</ele>
    <time>2025-01-05T16:05:28Z</time>
</wpt>
<wpt lat="36.07526906115336" lon="140.21471936265226">
    <ele>1.00</ele>
    <time>2025-01-05T16:05:29Z</time>
</wpt>
<wpt lat="36.07525802400485" lon="140.21475426057751">
    <ele>1.00</ele>
    <time>2025-01-05T16:05:30Z</time>
</wpt>
<wpt lat="36.07524698685635" lon="140.21478915850275">
    <ele>1.00</ele>
    <time>2025-01-05T16:05:31Z</time>
</wpt>
<wpt lat="36.07523594970785" lon="140.21482405642797">
    <ele>1.00</ele>
    <time>2025-01-05T16:05:32Z</time>
</wpt>
<wpt lat="36.07522491255934" lon="140.21485895435322">
    <ele>1.00</ele>
    <time>2025-01-05T16:05:33Z</time>
</wpt>
<wpt lat="36.07521387541085" lon="140.21489385227846">
    <ele>1.00</ele>
    <time>2025-01-05T16:05:34Z</time>
</wpt>
<wpt lat="36.07520283826234" lon="140.21492875020371">
    <ele>1.00</ele>
    <time>2025-01-05T16:05:35Z</time>
</wpt>
<wpt lat="36.07519180111384" lon="140.21496364812896">
    <ele>1.00</ele>
    <time>2025-01-05T16:05:36Z</time>
</wpt>
<wpt lat="36.07518251887195" lon="140.21499299728407">
    <ele>1.00</ele>
    <time>2025-01-05T16:05:36.841Z</time>
</wpt>
<wpt lat="36.07518193395197" lon="140.21499936576677">
    <ele>1.00</ele>
    <time>2025-01-05T16:05:37Z</time>
</wpt>
<wpt lat="36.07517825520996" lon="140.21503941911706">
    <ele>1.00</ele>
    <time>2025-01-05T16:05:38Z</time>
</wpt>
<wpt lat="36.07517457646794" lon="140.21507947246738">
    <ele>1.00</ele>
    <time>2025-01-05T16:05:39Z</time>
</wpt>
<wpt lat="36.07517089772593" lon="140.21511952581767">
    <ele>1.00</ele>
    <time>2025-01-05T16:05:40Z</time>
</wpt>
<wpt lat="36.07516721898393" lon="140.21515957916796">
    <ele>1.00</ele>
    <time>2025-01-05T16:05:41Z</time>
</wpt>
<wpt lat="36.07516354024192" lon="140.21519963251825">
    <ele>1.00</ele>
    <time>2025-01-05T16:05:42Z</time>
</wpt>
<wpt lat="36.07515986149991" lon="140.21523968586857">
    <ele>1.00</ele>
    <time>2025-01-05T16:05:43Z</time>
</wpt>
<wpt lat="36.07515618275789" lon="140.21527973921886">
    <ele>1.00</ele>
    <time>2025-01-05T16:05:44Z</time>
</wpt>
<wpt lat="36.07515250401588" lon="140.21531979256915">
    <ele>1.00</ele>
    <time>2025-01-05T16:05:45Z</time>
</wpt>
<wpt lat="36.07514882527387" lon="140.21535984591947">
    <ele>1.00</ele>
    <time>2025-01-05T16:05:46Z</time>
</wpt>
<wpt lat="36.07514514653186" lon="140.21539989926976">
    <ele>1.00</ele>
    <time>2025-01-05T16:05:47Z</time>
</wpt>
<wpt lat="36.07514146778985" lon="140.21543995262005">
    <ele>1.00</ele>
    <time>2025-01-05T16:05:48Z</time>
</wpt>
<wpt lat="36.07513916121861" lon="140.2154650660707">
    <ele>1.00</ele>
    <time>2025-01-05T16:05:48.627Z</time>
</wpt>
<wpt lat="36.07513550178183" lon="140.21547858801748">
    <ele>1.00</ele>
    <time>2025-01-05T16:05:49Z</time>
</wpt>
<wpt lat="36.07512569095936" lon="140.21551483988551">
    <ele>1.00</ele>
    <time>2025-01-05T16:05:50Z</time>
</wpt>
<wpt lat="36.07511588013689" lon="140.21555109175355">
    <ele>1.00</ele>
    <time>2025-01-05T16:05:51Z</time>
</wpt>
<wpt lat="36.07510606931442" lon="140.21558734362162">
    <ele>1.00</ele>
    <time>2025-01-05T16:05:52Z</time>
</wpt>
<wpt lat="36.07509625849195" lon="140.21562359548966">
    <ele>1.00</ele>
    <time>2025-01-05T16:05:53Z</time>
</wpt>
<wpt lat="36.07508644766948" lon="140.21565984735770">
    <ele>1.00</ele>
    <time>2025-01-05T16:05:54Z</time>
</wpt>
<wpt lat="36.07507663684702" lon="140.21569609922574">
    <ele>1.00</ele>
    <time>2025-01-05T16:05:55Z</time>
</wpt>
<wpt lat="36.07506682602455" lon="140.21573235109381">
    <ele>1.00</ele>
    <time>2025-01-05T16:05:56Z</time>
</wpt>
<wpt lat="36.07505701520208" lon="140.21576860296184">
    <ele>1.00</ele>
    <time>2025-01-05T16:05:57Z</time>
</wpt>
<wpt lat="36.07504720437962" lon="140.21580485482988">
    <ele>1.00</ele>
    <time>2025-01-05T16:05:58Z</time>
</wpt>
<wpt lat="36.07503739355715" lon="140.21584110669792">
    <ele>1.00</ele>
    <time>2025-01-05T16:05:59Z</time>
</wpt>
<wpt lat="36.07502758273468" lon="140.21587735856599">
    <ele>1.00</ele>
    <time>2025-01-05T16:06:00Z</time>
</wpt>
<wpt lat="36.07501777191221" lon="140.21591361043403">
    <ele>1.00</ele>
    <time>2025-01-05T16:06:01Z</time>
</wpt>
<wpt lat="36.07500796108974" lon="140.21594986230207">
    <ele>1.00</ele>
    <time>2025-01-05T16:06:02Z</time>
</wpt>
<wpt lat="36.07500041656726" lon="140.2159777399886">
    <ele>1.00</ele>
    <time>2025-01-05T16:06:02.769Z</time>
</wpt>
<wpt lat="36.07500367414190" lon="140.21598597607522">
    <ele>1.00</ele>
    <time>2025-01-05T16:06:03Z</time>
</wpt>
<wpt lat="36.07501777619657" lon="140.21602163012986">
    <ele>1.00</ele>
    <time>2025-01-05T16:06:04Z</time>
</wpt>
<wpt lat="36.07503187825125" lon="140.21605728418450">
    <ele>1.00</ele>
    <time>2025-01-05T16:06:05Z</time>
</wpt>
<wpt lat="36.07504598030594" lon="140.21609293823914">
    <ele>1.00</ele>
    <time>2025-01-05T16:06:06Z</time>
</wpt>
<wpt lat="36.07506008236061" lon="140.21612859229379">
    <ele>1.00</ele>
    <time>2025-01-05T16:06:07Z</time>
</wpt>
<wpt lat="36.07507418441529" lon="140.21616424634843">
    <ele>1.00</ele>
    <time>2025-01-05T16:06:08Z</time>
</wpt>
<wpt lat="36.07508828646997" lon="140.21619990040307">
    <ele>1.00</ele>
    <time>2025-01-05T16:06:09Z</time>
</wpt>
<wpt lat="36.07510238852466" lon="140.21623555445771">
    <ele>1.00</ele>
    <time>2025-01-05T16:06:10Z</time>
</wpt>
<wpt lat="36.07511649057933" lon="140.21627120851235">
    <ele>1.00</ele>
    <time>2025-01-05T16:06:11Z</time>
</wpt>
<wpt lat="36.07513059263401" lon="140.21630686256700">
    <ele>1.00</ele>
    <time>2025-01-05T16:06:12Z</time>
</wpt>
<wpt lat="36.07514469468869" lon="140.21634251662164">
    <ele>1.00</ele>
    <time>2025-01-05T16:06:13Z</time>
</wpt>
<wpt lat="36.07515879674337" lon="140.21637817067628">
    <ele>1.00</ele>
    <time>2025-01-05T16:06:14Z</time>
</wpt>
<wpt lat="36.07517289879805" lon="140.21641382473092">
    <ele>1.00</ele>
    <time>2025-01-05T16:06:15Z</time>
</wpt>
<wpt lat="36.07518700085273" lon="140.21644947878556">
    <ele>1.00</ele>
    <time>2025-01-05T16:06:16Z</time>
</wpt>
<wpt lat="36.0751998619266" lon="140.2164819952834">
    <ele>1.00</ele>
    <time>2025-01-05T16:06:16.912Z</time>
</wpt>
</gpx>
